FID,ID,NOMBRE,DESCRIPCION,DIRECCION,SDOGEOMETRIA,URL,EMAIL,CONTACTO,HORARIOS,PRECIOS,TITULARIDAD,TARJETAJOVEN,ACCESOPMR,INFOESP,lon,lat
da_medioAmbiente_contenedoresPilas.fid-7e811540_18cccdec071_744c,2100,Contenedor pilas Cl Alcalde Joaquin Quiles,,"CALLE ALCALDE JOAQUÍN QUILES, 13 ",POINT (-4.419971125247433 36.74958857043151),,,,,,OTRAS,No,No,"[ { ""Contenedor_interior"":""No"" } ] ",-4.419971125247433,36.74958857043151
da_medioAmbiente_contenedoresPilas.fid-7e811540_18cccdec071_744d,2098,Contenedor pilas Cl Alcalde Nicolas Maroto 17,,"CALLE ALCALDE NICOLÁS MAROTO, 17 ",POINT (-4.41713314330197 36.749416681625554),,,,,,OTRAS,No,No,"[ { ""Contenedor_interior"":""No"" } ] ",-4.41713314330197,36.749416681625554
da_medioAmbiente_contenedoresPilas.fid-7e811540_18cccdec071_744e,2171,Contenedor pilas Av Juan Sebastian Elcano 166,,"AVENIDA DE JUAN SEBASTIÁN ELCANO, 166 ",POINT (-4.362742877101605 36.72122120011003),,,,,,OTRAS,No,No,"[ { ""Contenedor_interior"":""No"" } ] ",-4.362742877101605,36.72122120011003
da_medioAmbiente_contenedoresPilas.fid-7e811540_18cccdec071_744f,2093,Contenedor pilas Av Juan Sebastián Elcano 203,,"AVENIDA DE JUAN SEBASTIÁN ELCANO, 203 ",POINT (-4.360284274698229 36.72135907743138),,,,,,OTRAS,No,No,"[ { ""Contenedor_interior"":""No"" } ] ",-4.360284274698229,36.72135907743138
da_medioAmbiente_contenedoresPilas.fid-7e811540_18cccdec071_7450,2060,Contenedor pilas Av Juan Sebastian Elcano 123,,"AVENIDA DE JUAN SEBASTIÁN ELCANO, 123 ",POINT (-4.368117863686456 36.72246788273462),,,,,,OTRAS,No,No,"[ { ""Contenedor_interior"":""No"" } ] ",-4.368117863686456,36.72246788273462
da_medioAmbiente_contenedoresPilas.fid-7e811540_18cccdec071_7451,2057,Contenedor pilas Cl Cristo Epidemia,,"CALLE CRISTO DE LA EPIDEMIA, 50 ",POINT (-4.414651044675323 36.729537934377205),,,,,,OTRAS,No,No,"[ { ""Contenedor_interior"":""No"" } ] ",-4.414651044675323,36.729537934377205
da_medioAmbiente_contenedoresPilas.fid-7e811540_18cccdec071_7452,2065,Contenedor pilas Cl Eugenio Gross ,,"CALLE EUGENIO GROSS, 56 ",POINT (-4.434925790185015 36.726129151419755),,,,,,OTRAS,No,No,"[ { ""Contenedor_interior"":""No"" } ] ",-4.434925790185015,36.726129151419755
da_medioAmbiente_contenedoresPilas.fid-7e811540_18cccdec071_7453,2094,Contenedor pilas Ctra Almeria La Araña,,"CARRETERA DE ALMERÍA LA ARAÑA, 87 ",POINT (-4.322772923339936 36.713049563717824),,,,,,OTRAS,No,No,"[ { ""Contenedor_interior"":""No"" } ] ",-4.322772923339936,36.713049563717824
da_medioAmbiente_contenedoresPilas.fid-7e811540_18cccdec071_7454,2087,Contenedor pilas Pso Limonar,,"PASEO DEL LIMONAR, 21 ",POINT (-4.398640515984423 36.725928186735096),,,,,,OTRAS,No,No,"[ { ""Contenedor_interior"":""No"" } ] ",-4.398640515984423,36.725928186735096
da_medioAmbiente_contenedoresPilas.fid-7e811540_18cccdec071_7455,2059,Contenedor pilas Pso Cerrado de Calderon,,"PASEO CERRADO DE CALDERÓN, 11 ",POINT (-4.38158583758124 36.72561716967165),,,,,,OTRAS,No,No,"[ { ""Contenedor_interior"":""No"" } ] ",-4.38158583758124,36.72561716967165
da_medioAmbiente_contenedoresPilas.fid-7e811540_18cccdec071_7456,2061,Contenedor pilas Cl Eucaliptus,,"CALLE EUCALIPTUS, 5 ",POINT (-4.37101714665676 36.72837617774868),,,,,,OTRAS,No,No,"[ { ""Contenedor_interior"":""No"" } ] ",-4.37101714665676,36.72837617774868
da_medioAmbiente_contenedoresPilas.fid-7e811540_18cccdec071_7457,2091,Contenedor pilas Av Juan Sebastian Elcano 84,,"AVENIDA DE JUAN SEBASTIÁN ELCANO, 84 ",POINT (-4.373756442713649 36.72230224766637),,,,,,OTRAS,No,No,"[ { ""Contenedor_interior"":""No"" } ] ",-4.373756442713649,36.72230224766637
da_medioAmbiente_contenedoresPilas.fid-7e811540_18cccdec071_7458,2115,Contenedor pilas Cl Deva ,,"CALLE DEVA, 2 ",POINT (-4.431421913765547 36.737913821214846),,,,,,OTRAS,No,No,"[ { ""Contenedor_interior"":""No"" } ] ",-4.431421913765547,36.737913821214846
da_medioAmbiente_contenedoresPilas.fid-7e811540_18cccdec071_7459,2102,Contenedor pilas Av Jacinto Benavente,,"AVENIDA DE JACINTO BENAVENTE, 7 ",POINT (-4.424049030451827 36.74914085923775),,,,,,OTRAS,No,No,"[ { ""Contenedor_interior"":""No"" } ] ",-4.424049030451827,36.74914085923775
da_medioAmbiente_contenedoresPilas.fid-7e811540_18cccdec071_745a,2084,Contenedor pilas Pl General Torrijos,,"PLAZA DEL GENERAL TORRIJOS, 2 ",POINT (-4.411900488593624 36.72042155066079),,,,,,OTRAS,No,No,"[ { ""Contenedor_interior"":""Si"" } ] ",-4.411900488593624,36.72042155066079
da_medioAmbiente_contenedoresPilas.fid-7e811540_18cccdec071_745b,2116,Contenedor pilas Av Jane Bowles 34,,"AVENIDA DE JANE BOWLES, 34 ",POINT (-4.427291478856079 36.75027636008707),,,,,,OTRAS,No,No,"[ { ""Contenedor_interior"":""No"" } ] ",-4.427291478856079,36.75027636008707
da_medioAmbiente_contenedoresPilas.fid-7e811540_18cccdec071_745c,2099,Contenedor pilas Cl Alcalde Nicolas Maroto 18,,"CALLE ALCALDE NICOLÁS MAROTO, 18 ",POINT (-4.417489364784621 36.74924094849624),,,,,,OTRAS,No,No,"[ { ""Contenedor_interior"":""Si"" } ] ",-4.417489364784621,36.74924094849624
da_medioAmbiente_contenedoresPilas.fid-7e811540_18cccdec071_745d,2131,Contenedor pilas Cl Armengual de la Mota ,,"CALLE ARMENGUAL DE LA MOTA, 1 ",POINT (-4.429868616253869 36.71732748546784),,,,,,OTRAS,No,No,"[ { ""Contenedor_interior"":""No"" } ] ",-4.429868616253869,36.71732748546784
da_medioAmbiente_contenedoresPilas.fid-7e811540_18cccdec071_745e,2129,Contenedor pilas Pl Rio Trabanco ,,"PLAZA DEL RÍO TRABANCO, 5 ",POINT (-4.446485059536588 36.70956661577841),,,,,,OTRAS,No,No,"[ { ""Contenedor_interior"":""No"" } ] ",-4.446485059536588,36.70956661577841
da_medioAmbiente_contenedoresPilas.fid-7e811540_18cccdec071_745f,2107,Contenedor pilas Pje Aralar ,,"PASAJE ARALAR, 2 ",POINT (-4.437987356586618 36.72287642396917),,,,,,OTRAS,No,No,"[ { ""Contenedor_interior"":""No"" } ] ",-4.437987356586618,36.72287642396917
da_medioAmbiente_contenedoresPilas.fid-7e811540_18cccdec071_7460,2090,Contenedor pilas Av Juan Sebastian Elcano 7,,"AVENIDA DE JUAN SEBASTIÁN ELCANO, 7 ",POINT (-4.379756223039693 36.722041139025094),,,,,,OTRAS,No,No,"[ { ""Contenedor_interior"":""No"" } ] ",-4.379756223039693,36.722041139025094
da_medioAmbiente_contenedoresPilas.fid-7e811540_18cccdec071_7461,2117,Contenedor pilas Av Jane Bowles 2,,"AVENIDA DE JANE BOWLES, 2 ",POINT (-4.426406929103088 36.74347824069813),,,,,,OTRAS,No,No,"[ { ""Contenedor_interior"":""No"" } ] ",-4.426406929103088,36.74347824069813
da_medioAmbiente_contenedoresPilas.fid-7e811540_18cccdec071_7462,2050,Contenedor pilas Pl de la Marina,,"PLAZA DE LA MARINA, 1 ",POINT (-4.421070492486785 36.71836027828998),,,,,,OTRAS,No,No,"[ { ""Contenedor_interior"":""No"" } ] ",-4.421070492486785,36.71836027828998
da_medioAmbiente_contenedoresPilas.fid-7e811540_18cccdec071_7463,2155,Contenedor pilas Av Profesor Garcia Rodeja ,,"AVENIDA PROFESOR GARCÍA RODEJA, 67 ",POINT (-4.565881739651277 36.73287418396119),,,,,,OTRAS,No,No,"[ { ""Contenedor_interior"":""No"" } ] ",-4.565881739651277,36.73287418396119
da_medioAmbiente_contenedoresPilas.fid-7e811540_18cccdec071_7464,2154,Contenedor pilas Cl Jose Calderon ,,"CALLE JOSÉ CALDERÓN, 157 ",POINT (-4.544469833594649 36.727597766113746),,,,,,OTRAS,No,No,"[ { ""Contenedor_interior"":""No"" } ] ",-4.544469833594649,36.727597766113746
da_medioAmbiente_contenedoresPilas.fid-7e811540_18cccdec071_7465,2168,Contenedor pilas Cl Diego López De Zúñiga,,"CALLE DIEGO LÓPEZ DE ZÚÑIGA, 12 ",POINT (-4.468477141913161 36.72309378072351),,,,,,OTRAS,No,No,"[ { ""Contenedor_interior"":""Si"" } ] ",-4.468477141913161,36.72309378072351
da_medioAmbiente_contenedoresPilas.fid-7e811540_18cccdec071_7466,2067,Contenedor pilas Cl Morales Villarubia,,"CALLE MORALES VILLARRUBIA, 25 ",POINT (-4.438947017608166 36.72615841306384),,,,,,OTRAS,No,No,"[ { ""Contenedor_interior"":""No"" } ] ",-4.438947017608166,36.72615841306384
da_medioAmbiente_contenedoresPilas.fid-7e811540_18cccdec071_7467,2136,Contenedor pilas Cl Ayala ,,"CALLE AYALA, 63 ",POINT (-4.436117184960127 36.7056925095955),,,,,,OTRAS,No,No,"[ { ""Contenedor_interior"":""No"" } ] ",-4.436117184960127,36.7056925095955
da_medioAmbiente_contenedoresPilas.fid-7e811540_18cccdec071_7468,2119,Contenedor pilas Cl Cuarteles ,,"CALLE CUARTELES, 66 ",POINT (-4.430157212974667 36.71218823436049),,,,,,OTRAS,No,No,"[ { ""Contenedor_interior"":""No"" } ] ",-4.430157212974667,36.71218823436049
da_medioAmbiente_contenedoresPilas.fid-7e811540_18cccdec071_7469,2137,Contenedor pilas Av de la Paloma ,,"AVENIDA DE LA PALOMA, 22 ",POINT (-4.441954638885212 36.70084036035384),,,,,,OTRAS,No,No,"[ { ""Contenedor_interior"":""No"" } ] ",-4.441954638885212,36.70084036035384
da_medioAmbiente_contenedoresPilas.fid-7e811540_18cccdec071_746a,2158,Contenedor pilas Cl Ramírez Arcas,,"CALLE RAMÍREZ ARCAS, 2 ",POINT (-4.544865332316317 36.72773128727554),,,,,,OTRAS,No,No,"[ { ""Contenedor_interior"":""Si"" } ] ",-4.544865332316317,36.72773128727554
da_medioAmbiente_contenedoresPilas.fid-7e811540_18cccdec071_746b,2141,Contenedor pilas Av Moliere ,,"AVENIDA DE MOLIÈRE, 23 ",POINT (-4.453187363359282 36.6874980448097),,,,,,OTRAS,No,No,"[ { ""Contenedor_interior"":""No"" } ] ",-4.453187363359282,36.6874980448097
da_medioAmbiente_contenedoresPilas.fid-7e811540_18cccdec071_746c,2166,Contenedor pilas Av Parmenides ,,"AVENIDA DE PARMÉNIDES, 13 ",POINT (-4.479869240776533 36.72192442964619),,,,,,OTRAS,No,No,"[ { ""Contenedor_interior"":""No"" } ] ",-4.479869240776533,36.72192442964619
da_medioAmbiente_contenedoresPilas.fid-7e811540_18cccdec071_746d,2097,Contenedor pilas Cl Danvila Y Collado,,"CALLE DÁNVILA Y COLLADO, 4 ",POINT (-4.35826807221373 36.719531105504835),,,,,,OTRAS,No,No,"[ { ""Contenedor_interior"":""Si"" } ] ",-4.35826807221373,36.719531105504835
da_medioAmbiente_contenedoresPilas.fid-7e811540_18cccdec071_746e,2101,Contenedor pilas Av Santiago Ramon Y Cajal ,,"AVENIDA DE SANTIAGO RAMÓN Y CAJAL, 43 ",POINT (-4.4232552311397555 36.743536124399036),,,,,,OTRAS,No,No,"[ { ""Contenedor_interior"":""No"" } ] ",-4.4232552311397555,36.743536124399036
da_medioAmbiente_contenedoresPilas.fid-7e811540_18cccdec071_746f,2092,Contenedor pilas Cl Practicante Fernandez Alcolea,,"CALLE PRACTICANTE FERNÁNDEZ ALCOLEA, 11 ",POINT (-4.35747176263417 36.719792680816994),,,,,,OTRAS,No,No,"[ { ""Contenedor_interior"":""No"" } ] ",-4.35747176263417,36.719792680816994
da_medioAmbiente_contenedoresPilas.fid-7e811540_18cccdec071_7470,2083,Contenedor pilas Av Pries,,"AVENIDA DE PRÍES, 15 ",POINT (-4.405953609889279 36.72142758451036),,,,,,OTRAS,No,No,"[ { ""Contenedor_interior"":""No"" } ] ",-4.405953609889279,36.72142758451036
da_medioAmbiente_contenedoresPilas.fid-7e811540_18cccdec071_7471,2086,Contenedor pilas Av Pintor Joaquín Sorolla,,"AVENIDA DEL PINTOR JOAQUÍN SOROLLA, 10 ",POINT (-4.396231572407789 36.72334224969057),,,,,,OTRAS,No,No,"[ { ""Contenedor_interior"":""No"" } ] ",-4.396231572407789,36.72334224969057
da_medioAmbiente_contenedoresPilas.fid-7e811540_18cccdec071_7472,2104,Contenedor pilas Av Malaga Oloroso,,"AVENIDA MÁLAGA OLOROSO, 16 ",POINT (-4.417879495994991 36.74632912628365),,,,,,OTRAS,No,No,"[ { ""Contenedor_interior"":""No"" } ] ",-4.417879495994991,36.74632912628365
da_medioAmbiente_contenedoresPilas.fid-7e811540_18cccdec071_7473,2062,Contenedor pilas Cl Emilio Thuillier,,"CALLE EMILIO THUILLIER, 82 ",POINT (-4.4217590338064525 36.74594469329502),,,,,,OTRAS,No,No,"[ { ""Contenedor_interior"":""No"" } ] ",-4.4217590338064525,36.74594469329502
da_medioAmbiente_contenedoresPilas.fid-7e811540_18cccdec071_7474,2080,Contenedor pilas Cl Mefistofeles ,,"CALLE MEFISTÓFELES, 11 ",POINT (-4.4630949041391474 36.70998755245687),,,,,,OTRAS,No,No,"[ { ""Contenedor_interior"":""No"" } ] ",-4.4630949041391474,36.70998755245687
da_medioAmbiente_contenedoresPilas.fid-7e811540_18cccdec071_7475,2121,Contenedor pilas Pl de Manuel Azaña,,"PLAZA DE MANUEL AZAÑA, 3 ",POINT (-4.448641578831595 36.714393460794525),,,,,,OTRAS,No,No,"[ { ""Contenedor_interior"":""No"" } ] ",-4.448641578831595,36.714393460794525
da_medioAmbiente_contenedoresPilas.fid-7e811540_18cccdec071_7476,2048,Contenedor pilas Cl Ciprés ,,"CALLE DEL CIPRÉS, 29 ",POINT (-4.448918105432915 36.725177690530245),,,,,,OTRAS,No,No,"[ { ""Contenedor_interior"":""No"" } ] ",-4.448918105432915,36.725177690530245
da_medioAmbiente_contenedoresPilas.fid-7e811540_18cccdec071_7477,2072,Contenedor pilas Av Juan XXIII,,"AVENIDA DE JUAN XXIII, 74 ",POINT (-4.44639980966958 36.71233285633319),,,,,,OTRAS,No,No,"[ { ""Contenedor_interior"":""No"" } ] ",-4.44639980966958,36.71233285633319
da_medioAmbiente_contenedoresPilas.fid-7e811540_18cccdec071_7478,2110,Contenedor pilas Cmno San Alberto,,"CAMINO SAN ALBERTO, 1 ",POINT (-4.448667230299207 36.73052105925358),,,,,,OTRAS,No,No,"[ { ""Contenedor_interior"":""No"" } ] ",-4.448667230299207,36.73052105925358
da_medioAmbiente_contenedoresPilas.fid-7e811540_18cccdec071_7479,2181,Contenedor pilas Cl Francisco de Cossio ,,"CALLE DE FRANCISCO DE COSSÍO, 8 ",POINT (-4.444277093591198 36.691563743780804),,,,,,OTRAS,No,No,"[ { ""Contenedor_interior"":""No"" } ] ",-4.444277093591198,36.691563743780804
da_medioAmbiente_contenedoresPilas.fid-7e811540_18cccdec071_747a,2144,Contenedor pilas Av Imperio Argentina,,"AVENIDA IMPERIO ARGENTINA, 8 ",POINT (-4.454963037061041 36.68252989179226),,,,,,OTRAS,No,No,"[ { ""Contenedor_interior"":""No"" } ] ",-4.454963037061041,36.68252989179226
da_medioAmbiente_contenedoresPilas.fid-7e811540_18cccdec071_747b,2149,Contenedor pilas Cl Castelao ,,"CALLE CASTELAO, 8 ",POINT (-4.485849009796443 36.69243768267557),,,,,,OTRAS,No,No,"[ { ""Contenedor_interior"":""No"" } ] ",-4.485849009796443,36.69243768267557
da_medioAmbiente_contenedoresPilas.fid-7e811540_18cccdec071_747c,2170,Contenedor pilas Cl Jaboneros,,"CALLE JABONEROS, 1 ",POINT (-4.429111598513753 36.72170528051584),,,,,,OTRAS,No,No,"[ { ""Contenedor_interior"":""No"" } ] ",-4.429111598513753,36.72170528051584
da_medioAmbiente_contenedoresPilas.fid-7e811540_18cccdec071_747d,2175,Contenedor pilas Pso Martiricos,,"PASEO MARTIRICOS, 14 ",POINT (-4.426916791062508 36.72874091408618),,,,,,OTRAS,No,No,"[ { ""Contenedor_interior"":""Si"" } ] ",-4.426916791062508,36.72874091408618
da_medioAmbiente_contenedoresPilas.fid-7e811540_18cccdec071_747e,2126,Contenedor pilas Pl Pio XII,,"PLAZA DE PÍO XII, 2 ",POINT (-4.4436153118394115 36.71725585859224),,,,,,OTRAS,No,No,"[ { ""Contenedor_interior"":""No"" } ] ",-4.4436153118394115,36.71725585859224
da_medioAmbiente_contenedoresPilas.fid-7e811540_18cccdec071_747f,2143,Contenedor pilas Cl Tomas Echeverria,,"CALLE TOMÁS ECHEVERRÍA, 2 ",POINT (-4.436168231881203 36.70456446224126),,,,,,OTRAS,No,No,"[ { ""Contenedor_interior"":""No"" } ] ",-4.436168231881203,36.70456446224126
da_medioAmbiente_contenedoresPilas.fid-7e811540_18cccdec071_7480,2122,Contenedor pilas Cmno de los Prados ,,"CAMINO DE LOS PRADOS, 18 ",POINT (-4.474333098926974 36.699039661126506),,,,,,OTRAS,No,No,"[ { ""Contenedor_interior"":""No"" } ] ",-4.474333098926974,36.699039661126506
da_medioAmbiente_contenedoresPilas.fid-7e811540_18cccdec071_7481,2157,Contenedor pilas Av Juan Lopez De Peñalver,,"AVENIDA DE JUAN LÓPEZ DE PEÑALVER, 19 ",POINT (-4.553534067704185 36.73678487792008),,,,,,OTRAS,No,No,"[ { ""Contenedor_interior"":""No"" } ] ",-4.553534067704185,36.73678487792008
da_medioAmbiente_contenedoresPilas.fid-7e811540_18cccdec071_7482,2148,Contenedor pilas Cmno Guadalmar A La Loma ,,"CAMINO GUADALMAR A LA LOMA, 5 ",POINT (-4.474746926893807 36.66752219519026),,,,,,OTRAS,No,No,"[ { ""Contenedor_interior"":""No"" } ] ",-4.474746926893807,36.66752219519026
da_medioAmbiente_contenedoresPilas.fid-7e811540_18cccdec071_7483,2108,Contenedor pilas Cl Nuestra Señora De Los Clarines ,,"CALLE NUESTRA SEÑORA DE LOS CLARINES, 2 ",POINT (-4.4398055263751 36.7291719606025),,,,,,OTRAS,No,No,"[ { ""Contenedor_interior"":""No"" } ] ",-4.4398055263751,36.7291719606025
da_medioAmbiente_contenedoresPilas.fid-7e811540_18cccdec071_7484,2132,Contenedor pilas Cl Conde De Guadalhorce,,"CALLE CONDE DE GUADALHORCE, 15 ",POINT (-4.442445809204405 36.713941125322634),,,,,,OTRAS,No,No,"[ { ""Contenedor_interior"":""Si"" } ] ",-4.442445809204405,36.713941125322634
da_medioAmbiente_contenedoresPilas.fid-7e811540_18cccdec071_7485,2161,Contenedor pilas Cl Victor Hugo,,"CALLE VÍCTOR HUGO, 10 ",POINT (-4.4814895256391765 36.737237751751366),,,,,,OTRAS,No,No,"[ { ""Contenedor_interior"":""Si"" } ] ",-4.4814895256391765,36.737237751751366
da_medioAmbiente_contenedoresPilas.fid-7e811540_18cccdec071_7486,2140,Contenedor pilas Cl Ildefonso Marzo ,,"CALLE ILDEFONSO MARZO, 15 ",POINT (-4.446464554205541 36.697210525104154),,,,,,OTRAS,No,No,"[ { ""Contenedor_interior"":""No"" } ] ",-4.446464554205541,36.697210525104154
da_medioAmbiente_contenedoresPilas.fid-7e811540_18cccdec071_7487,2075,Contenedor pilas Cl Puerto Oncala ,,"CALLE PUERTO ONCALA, 1 ",POINT (-4.451850557551092 36.70063124421943),,,,,,OTRAS,No,No,"[ { ""Contenedor_interior"":""No"" } ] ",-4.451850557551092,36.70063124421943
da_medioAmbiente_contenedoresPilas.fid-7e811540_18cccdec071_7488,2138,Contenedor pilas Av Velazquez 16,,"AVENIDA DE VELÁZQUEZ, 16 ",POINT (-4.447161787690429 36.69911062572027),,,,,,OTRAS,No,No,"[ { ""Contenedor_interior"":""No"" } ] ",-4.447161787690429,36.69911062572027
da_medioAmbiente_contenedoresPilas.fid-7e811540_18cccdec071_7489,2159,Contenedor pilas Cl Lope De Rueda ,,"CALLE LOPE DE RUEDA, 244 ",POINT (-4.489762213306555 36.743546600816906),,,,,,OTRAS,No,No,"[ { ""Contenedor_interior"":""No"" } ] ",-4.489762213306555,36.743546600816906
da_medioAmbiente_contenedoresPilas.fid-7e811540_18cccdec071_748a,2146,Contenedor pilas Av Velazquez 59,,"AVENIDA DE VELÁZQUEZ, 59 ",POINT (-4.449989510807777 36.69620838194963),,,,,,OTRAS,No,No,"[ { ""Contenedor_interior"":""No"" } ] ",-4.449989510807777,36.69620838194963
da_medioAmbiente_contenedoresPilas.fid-7e811540_18cccdec071_748b,2179,Contenedor pilas Cl Sondalezas ,,"CALLE SONDALEZAS, 16 ",POINT (-4.441387032970984 36.72394942547673),,,,,,OTRAS,No,No,"[ { ""Contenedor_interior"":""No"" } ] ",-4.441387032970984,36.72394942547673
da_medioAmbiente_contenedoresPilas.fid-7e811540_18cccdec071_748c,2103,Contenedor pilas Av Nuestra Señora De Las Guias,,"AVENIDA DE NUESTRA SEÑORA DE LAS GUÍAS, 2 ",POINT (-4.4213747661250595 36.73780277340328),,,,,,OTRAS,No,No,"[ { ""Contenedor_interior"":""No"" } ] ",-4.4213747661250595,36.73780277340328
da_medioAmbiente_contenedoresPilas.fid-7e811540_18cccdec071_748d,2077,Contenedor pilas Cmno Huertecilla,,"CAMINO HUERTECILLA, 2 ",POINT (-4.5047016137884 36.67141907218898),,,,,,OTRAS,No,No,"[ { ""Contenedor_interior"":""No"" } ] ",-4.5047016137884,36.67141907218898
da_medioAmbiente_contenedoresPilas.fid-7e811540_18cccdec071_748e,2176,Contenedor pilas Cl La Hoz,,"CALLE LA HOZ, 39 ",POINT (-4.4383653979128175 36.70242476619488),,,,,,OTRAS,No,No,"[ { ""Contenedor_interior"":""No"" } ] ",-4.4383653979128175,36.70242476619488
da_medioAmbiente_contenedoresPilas.fid-7e811540_18cccdec071_748f,2054,Contenedor pilas Cl Sevilla,,"CALLE SEVILLA, 23 ",POINT (-4.429563703601877 36.7256767591891),,,,,,OTRAS,No,No,"[ { ""Contenedor_interior"":""No"" } ] ",-4.429563703601877,36.7256767591891
da_medioAmbiente_contenedoresPilas.fid-7e811540_18cccdec071_7490,2172,Contenedor pilas Cl María Tubau ,,"CALLE MARÍA TUBAU, 18 ",POINT (-4.422496657505318 36.740754538948195),,,,,,OTRAS,No,No,"[ { ""Contenedor_interior"":""No"" } ] ",-4.422496657505318,36.740754538948195
da_medioAmbiente_contenedoresPilas.fid-7e811540_18cccdec071_7491,2142,Contenedor pilas Cril Cordobesa,,"CARRIL DE LA CORDOBESA, 14 ",POINT (-4.440199943824236 36.707911473221635),,,,,,OTRAS,No,No,"[ { ""Contenedor_interior"":""No"" } ] ",-4.440199943824236,36.707911473221635
da_medioAmbiente_contenedoresPilas.fid-7e811540_18cccdec071_7492,2130,Contenedor pilas Pso  Los Tilos,,"PASEO DE LOS TILOS, 34 ",POINT (-4.436086149529159 36.71333946672529),,,,,,OTRAS,No,No,"[ { ""Contenedor_interior"":""No"" } ] ",-4.436086149529159,36.71333946672529
da_medioAmbiente_contenedoresPilas.fid-7e811540_18cccdec071_7493,2109,Contenedor pilas Av Carlos de Haya 99,,"AVENIDA CARLOS DE HAYA, 34 ",POINT (-4.444207222772245 36.72171804752679),,,,,,OTRAS,No,No,"[ { ""Contenedor_interior"":""No"" } ] ",-4.444207222772245,36.72171804752679
da_medioAmbiente_contenedoresPilas.fid-7e811540_18cccdec071_7494,2112,Contenedor pilas Av Luis Buñuel ,,"AVENIDA DE LUIS BUÑUEL, 16 ",POINT (-4.432990003153257 36.73381058636947),,,,,,OTRAS,No,No,"[ { ""Contenedor_interior"":""No"" } ] ",-4.432990003153257,36.73381058636947
da_medioAmbiente_contenedoresPilas.fid-7e811540_18cccdec071_7495,2125,Contenedor pilas Pl Jose Bergamin,,"PLAZA JOSÉ BERGAMÍN, 2 ",POINT (-4.454165191516586 36.718653987330164),,,,,,OTRAS,No,No,"[ { ""Contenedor_interior"":""No"" } ] ",-4.454165191516586,36.718653987330164
da_medioAmbiente_contenedoresPilas.fid-7e811540_18cccdec071_7496,2068,Contenedor pilas Cl Poeta Agustín Ruano ,,"CALLE POETA AGUSTÍN RUANO, 3 ",POINT (-4.431766803471405 36.732363245563484),,,,,,OTRAS,No,No,"[ { ""Contenedor_interior"":""No"" } ] ",-4.431766803471405,36.732363245563484
da_medioAmbiente_contenedoresPilas.fid-7e811540_18cccdec071_7497,2124,Contenedor pilas Cl Corregidor Francisco De Molina ,,"CALLE CORREGIDOR FRANCISCO DE MOLINA, 19 ",POINT (-4.451753208137783 36.71279017553439),,,,,,OTRAS,No,No,"[ { ""Contenedor_interior"":""No"" } ] ",-4.451753208137783,36.71279017553439
da_medioAmbiente_contenedoresPilas.fid-7e811540_18cccdec071_7498,2066,Contenedor pilas Av Carlos de Haya 34,,"AVENIDA CARLOS DE HAYA, 78 ",POINT (-4.4486435953544445 36.72267418697098),,,,,,OTRAS,No,No,"[ { ""Contenedor_interior"":""No"" } ] ",-4.4486435953544445,36.72267418697098
da_medioAmbiente_contenedoresPilas.fid-7e811540_18cccdec071_7499,2167,Contenedor pilas Cl Andres Bernaldez ,,"CALLE ANDRÉS BERNÁLDEZ, 16 ",POINT (-4.466043216183362 36.722174893468775),,,,,,OTRAS,No,No,"[ { ""Contenedor_interior"":""No"" } ] ",-4.466043216183362,36.722174893468775
da_medioAmbiente_contenedoresPilas.fid-7e811540_18cccdec071_749a,2089,Contenedor pilas Cl Olmos,,"CALLE OLMOS, 43 ",POINT (-4.3804588759450525 36.73753921767626),,,,,,OTRAS,No,No,"[ { ""Contenedor_interior"":""No"" } ] ",-4.3804588759450525,36.73753921767626
da_medioAmbiente_contenedoresPilas.fid-7e811540_18cccdec071_749b,2180,Contenedor pilas Av Arroyo de los Angeles 56,,"AVENIDA DEL ARROYO DE LOS ÁNGELES, 56 ",POINT (-4.43237997022548 36.72912124869248),,,,,,OTRAS,No,No,"[ { ""Contenedor_interior"":""No"" } ] ",-4.43237997022548,36.72912124869248
da_medioAmbiente_contenedoresPilas.fid-7e811540_18cccdec071_749c,2049,Contenedor pilas Pso Reding,,"PASEO DE REDING, 2 ",POINT (-4.411713129137986 36.7208110068653),,,,,,OTRAS,No,No,"[ { ""Contenedor_interior"":""No"" } ] ",-4.411713129137986,36.7208110068653
da_medioAmbiente_contenedoresPilas.fid-7e811540_18cccdec071_749d,2053,Contenedor pilas Cl Ejido,,"CALLE EJIDO, 6 ",POINT (-4.41790682775468 36.72790724534181),,,,,,OTRAS,No,No,"[ { ""Contenedor_interior"":""No"" } ] ",-4.41790682775468,36.72790724534181
da_medioAmbiente_contenedoresPilas.fid-7e811540_18cccdec071_749e,2052,Contenedor pilas Almd Colon ,,"ALAMEDA DE COLÓN, 19 ",POINT (-4.424012130563825 36.713781210261324),,,,,,OTRAS,No,No,"[ { ""Contenedor_interior"":""No"" } ] ",-4.424012130563825,36.713781210261324
da_medioAmbiente_contenedoresPilas.fid-7e811540_18cccdec071_749f,2069,Contenedor pilas Pl Cruz Del Humilladero,,"PLAZA CRUZ DE HUMILLADERO, 3 ",POINT (-4.440927969661042 36.711650404350685),,,,,,OTRAS,No,No,"[ { ""Contenedor_interior"":""No"" } ] ",-4.440927969661042,36.711650404350685
da_medioAmbiente_contenedoresPilas.fid-7e811540_18cccdec071_74a0,2082,Contenedor pilas Pso Antonio Machado,,"PASEO DE ANTONIO MACHADO, 12 ",POINT (-4.427590996685576 36.710005343689744),,,,,,OTRAS,No,No,"[ { ""Contenedor_interior"":""Si"" } ] ",-4.427590996685576,36.710005343689744
da_medioAmbiente_contenedoresPilas.fid-7e811540_18cccdec071_74a1,2111,Contenedor pilas Av Arroyo de los Angeles 91,,"AVENIDA DEL ARROYO DE LOS ÁNGELES, 91 ",POINT (-4.43688114959753 36.73125590616648),,,,,,OTRAS,No,No,"[ { ""Contenedor_interior"":""No"" } ] ",-4.43688114959753,36.73125590616648
da_medioAmbiente_contenedoresPilas.fid-7e811540_18cccdec071_74a2,2074,Contenedor pilas Cl Heroe de Sostoa ,,"CALLE HÉROE DE SOSTOA, 100 ",POINT (-4.437159648788835 36.70669062506599),,,,,,OTRAS,No,No,"[ { ""Contenedor_interior"":""No"" } ] ",-4.437159648788835,36.70669062506599
da_medioAmbiente_contenedoresPilas.fid-7e811540_18cccdec071_74a3,2173,Contenedor pilas Av Carlos de Haya 78,,"AVENIDA CARLOS DE HAYA, 192 ",POINT (-4.456655279379421 36.72481070244753),,,,,,OTRAS,No,No,"[ { ""Contenedor_interior"":""No"" } ] ",-4.456655279379421,36.72481070244753
da_medioAmbiente_contenedoresPilas.fid-7e811540_18cccdec071_74a4,2079,Contenedor pilas Av Andersen ,,"AVENIDA DE ANDERSEN, 1 ",POINT (-4.481429790876788 36.737858844752424),,,,,,OTRAS,No,No,"[ { ""Contenedor_interior"":""No"" } ] ",-4.481429790876788,36.737858844752424
da_medioAmbiente_contenedoresPilas.fid-7e811540_18cccdec071_74a5,2127,Contenedor pilas Pl Guerrero Strachan ,,"PLAZA DE GUERRERO STRACHAN, 8 ",POINT (-4.437078913589977 36.719933862838566),,,,,,OTRAS,No,No,"[ { ""Contenedor_interior"":""No"" } ] ",-4.437078913589977,36.719933862838566
da_medioAmbiente_contenedoresPilas.fid-7e811540_18cccdec071_74a6,2163,Contenedor pilas Cl Jimenez Fraud ,,"CALLE DE JIMÉNEZ FRAUD, 7 ",POINT (-4.476442147256631 36.71731790259033),,,,,,OTRAS,No,No,"[ { ""Contenedor_interior"":""No"" } ] ",-4.476442147256631,36.71731790259033
da_medioAmbiente_contenedoresPilas.fid-7e811540_18cccdec071_74a7,2070,Contenedor pilas Pl Aparejador Federico Bermudez ,,"PLAZA APAREJADOR FEDERICO BERMÚDEZ, 2 ",POINT (-4.439976007791185 36.721043680263655),,,,,,OTRAS,No,No,"[ { ""Contenedor_interior"":""No"" } ] ",-4.439976007791185,36.721043680263655
da_medioAmbiente_contenedoresPilas.fid-7e811540_18cccdec071_74a8,2051,Contenedor pilas Cl Merced,,"CALLE LA MERCED, 1 ",POINT (-4.417641909048999 36.72425803657833),,,,,,OTRAS,No,No,"[ { ""Contenedor_interior"":""Si"" } ] ",-4.417641909048999,36.72425803657833
da_medioAmbiente_contenedoresPilas.fid-7e811540_18cccdec071_74a9,2056,Contenedor pilas Pl Olletas,,"PLAZA DE OLLETAS, 6 ",POINT (-4.416092136502598 36.73336117411395),,,,,,OTRAS,No,No,"[ { ""Contenedor_interior"":""No"" } ] ",-4.416092136502598,36.73336117411395
da_medioAmbiente_contenedoresPilas.fid-7e811540_18cccdec071_74aa,2177,Contenedor pilas Cl Mercedes Formica ,,"CALLE MERCEDES FÓRMICA, 4 ",POINT (-4.505621359150893 36.659366415436935),,,,,,OTRAS,No,No,"[ { ""Contenedor_interior"":""No"" } ] ",-4.505621359150893,36.659366415436935
da_medioAmbiente_contenedoresPilas.fid-7e811540_18cccdec071_74ab,2153,Contenedor pilas Cl La Gitanilla,,"CALLE DE LA GITANILLA, 17 ",POINT (-4.496598835422953 36.70247559056339),,,,,,OTRAS,No,No,"[ { ""Contenedor_interior"":""Si"" } ] ",-4.496598835422953,36.70247559056339
da_medioAmbiente_contenedoresPilas.fid-7e811540_18cccdec071_74ac,2120,Contenedor pilas Cl Hilera ,,"CALLE HILERA, 11 ",POINT (-4.43298539743249 36.71936572067969),,,,,,OTRAS,No,No,"[ { ""Contenedor_interior"":""No"" } ] ",-4.43298539743249,36.71936572067969
da_medioAmbiente_contenedoresPilas.fid-7e811540_18cccdec071_74ad,2081,Contenedor pilas Cl Arquitecto Francisco Peñalosa ,,"CALLE ARQUITECTO FRANCISCO PEÑALOSA, 6 ",POINT (-4.492240821122141 36.7149716907267),,,,,,OTRAS,No,No,"[ { ""Contenedor_interior"":""No"" } ] ",-4.492240821122141,36.7149716907267
da_medioAmbiente_contenedoresPilas.fid-7e811540_18cccdec071_74ae,2145,Contenedor pilas Av de Europa,,"AVENIDA DE EUROPA, 99 ",POINT (-4.452925535382544 36.69955091020245),,,,,,OTRAS,No,No,"[ { ""Contenedor_interior"":""Si"" } ] ",-4.452925535382544,36.69955091020245
da_medioAmbiente_contenedoresPilas.fid-7e811540_18cccdec071_74af,2095,Contenedor pilas Cmno Viejo De Velez,,"CAMINO VIEJO DE VÉLEZ, 1 ",POINT (-4.3471798078734345 36.7220979370301),,,,,,OTRAS,No,No,"[ { ""Contenedor_interior"":""No"" } ] ",-4.3471798078734345,36.7220979370301
da_medioAmbiente_contenedoresPilas.fid-7e811540_18cccdec071_74b0,2165,Contenedor pilas Cl Navarro Ledesma ,,"CALLE NAVARRO LEDESMA, 156 ",POINT (-4.476408128785858 36.72472166854722),,,,,,OTRAS,No,No,"[ { ""Contenedor_interior"":""No"" } ] ",-4.476408128785858,36.72472166854722
da_medioAmbiente_contenedoresPilas.fid-7e811540_18cccdec071_74b1,2128,Contenedor pilas Cl La Unión ,,"CALLE LA UNIÓN, 28 ",POINT (-4.437650256145317 36.71146064769364),,,,,,OTRAS,No,No,"[ { ""Contenedor_interior"":""No"" } ] ",-4.437650256145317,36.71146064769364
da_medioAmbiente_contenedoresPilas.fid-7e811540_18cccdec071_74b2,2064,Contenedor pilas Pl Bailen,,"PLAZA BAILÉN, 8 ",POINT (-4.431811660279521 36.724382149170935),,,,,,OTRAS,No,No,"[ { ""Contenedor_interior"":""No"" } ] ",-4.431811660279521,36.724382149170935
da_medioAmbiente_contenedoresPilas.fid-7e811540_18cccdec071_74b3,2088,Contenedor pilas Cl Federico Fellini,,"CALLE FEDERICO FELLINI, 34 ",POINT (-4.3895900221314195 36.72747075129965),,,,,,OTRAS,No,No,"[ { ""Contenedor_interior"":""No"" } ] ",-4.3895900221314195,36.72747075129965
da_medioAmbiente_contenedoresPilas.fid-7e811540_18cccdec071_74b4,2174,Contenedor pilas Cl Martínez Maldonado 58,,"CALLE MARTÍNEZ MALDONADO, 58 ",POINT (-4.438694273449397 36.7215933723506),,,,,,OTRAS,No,No,"[ { ""Contenedor_interior"":""Si"" } ] ",-4.438694273449397,36.7215933723506
da_medioAmbiente_contenedoresPilas.fid-7e811540_18cccdec071_74b5,2063,Contenedor pilas Cl Quintanar De La Orden ,,"CALLE QUINTANAR DE LA ORDEN, 1 ",POINT (-4.421697426543169 36.75090563587703),,,,,,OTRAS,No,No,"[ { ""Contenedor_interior"":""No"" } ] ",-4.421697426543169,36.75090563587703
da_medioAmbiente_contenedoresPilas.fid-7e811540_18cccdec071_74b6,2105,Contenedor pilas Cl Obispo Bartolome Espejo,,"CALLE OBISPO BARTOLOMÉ ESPEJO, 10 ",POINT (-4.421875733453516 36.73512770846646),,,,,,OTRAS,No,No,"[ { ""Contenedor_interior"":""No"" } ] ",-4.421875733453516,36.73512770846646
da_medioAmbiente_contenedoresPilas.fid-7e811540_18cccdec071_74b7,2182,Contenedor pilas Pl Inmaculada 12,,"PLAZA DE LA INMACULADA, 12 ",POINT (-4.5029090949281905 36.66922392525133),,,,,,OTRAS,No,No,"[ { ""Contenedor_interior"":""No"" } ] ",-4.5029090949281905,36.66922392525133
da_medioAmbiente_contenedoresPilas.fid-7e811540_18cccdec071_74b8,2147,Contenedor pilas Pl Inmaculada 11,,"PLAZA DE LA INMACULADA, 11 ",POINT (-4.502800074221962 36.66916057971967),,,,,,OTRAS,No,No,"[ { ""Contenedor_interior"":""Si"" } ] ",-4.502800074221962,36.66916057971967
da_medioAmbiente_contenedoresPilas.fid-7e811540_18cccdec071_74b9,2085,Contenedor pilas Av Rosaleda,,"AVENIDA DE LA ROSALEDA, 19 ",POINT (-4.42539616934598 36.724699103412455),,,,,,OTRAS,No,No,"[ { ""Contenedor_interior"":""Si"" } ] ",-4.42539616934598,36.724699103412455
da_medioAmbiente_contenedoresPilas.fid-7e811540_18cccdec071_74ba,2106,Contenedor pilas Cl Ibrahin ,,"CALLE IBRAHÍN, 31 ",POINT (-4.441766905395997 36.72999571487236),,,,,,OTRAS,No,No,"[ { ""Contenedor_interior"":""No"" } ] ",-4.441766905395997,36.72999571487236
da_medioAmbiente_contenedoresPilas.fid-7e811540_18cccdec071_74bb,2076,Contenedor pilas Av Sor Teresa Prat 17,,"AVENIDA DE SOR TERESA PRAT, 17 ",POINT (-4.440466993139408 36.69856815356271),,,,,,OTRAS,No,No,"[ { ""Contenedor_interior"":""Si"" } ] ",-4.440466993139408,36.69856815356271
da_medioAmbiente_contenedoresPilas.fid-7e811540_18cccdec071_74bc,2113,Contenedor pilas Cl Doctor Galvez Moll,,"CALLE DOCTOR GÁLVEZ MOLL, 11 ",POINT (-4.428022653117513 36.7393168252445),,,,,,OTRAS,No,No,"[ { ""Contenedor_interior"":""Si"" } ] ",-4.428022653117513,36.7393168252445
da_medioAmbiente_contenedoresPilas.fid-7e811540_18cccdec071_74bd,2169,Contenedor pilas Pso Cervantes,,"AVENIDA DE CERVANTES, 2 ",POINT (-4.416010686603216 36.71982662858064),,,,,,OTRAS,No,No,"[ { ""Contenedor_interior"":""No"" } ] ",-4.416010686603216,36.71982662858064
da_medioAmbiente_contenedoresPilas.fid-7e811540_18cccdec071_74be,2164,Contenedor pilas Bv Louis Pasteur 28,,"BULEVAR LOUIS PASTEUR, 28 ",POINT (-4.471297202044971 36.71737484321416),,,,,,OTRAS,No,No,"[ { ""Contenedor_interior"":""No"" } ] ",-4.471297202044971,36.71737484321416
da_medioAmbiente_contenedoresPilas.fid-7e811540_18cccdec071_74bf,2178,Contenedor pilas Bv Louis Pasteur 35,,"BULEVAR LOUIS PASTEUR, 35 ",POINT (-4.476016386356587 36.715823849346215),,,,,,OTRAS,No,No,"[ { ""Contenedor_interior"":""Si"" } ] ",-4.476016386356587,36.715823849346215
da_medioAmbiente_contenedoresPilas.fid-7e811540_18cccdec071_74c0,2114,Contenedor pilas Cl Godino ,,"CALLE GODINO, 4 ",POINT (-4.429274318888475 36.7309724646758),,,,,,OTRAS,No,No,"[ { ""Contenedor_interior"":""No"" } ] ",-4.429274318888475,36.7309724646758
da_medioAmbiente_contenedoresPilas.fid-7e811540_18cccdec071_74c1,2123,Contenedor pilas Cl Martínez Maldonado 51,,"CALLE MARTÍNEZ MALDONADO, 51 ",POINT (-4.435582711030467 36.72136261510811),,,,,,OTRAS,No,No,"[ { ""Contenedor_interior"":""No"" } ] ",-4.435582711030467,36.72136261510811
da_medioAmbiente_contenedoresPilas.fid-7e811540_18cccdec071_74c2,2156,Contenedor pilas Cmno Santa Inés,,"CAMINO SANTA INÉS, 27 ",POINT (-4.533946736076159 36.720998722162314),,,,,,OTRAS,No,No,"[ { ""Contenedor_interior"":""No"" } ] ",-4.533946736076159,36.720998722162314
da_medioAmbiente_contenedoresPilas.fid-7e811540_18cccdec071_74c3,2150,Contenedor pilas Cl Monsalvez ,,"CALLE MONSÁLVEZ, 2 ",POINT (-4.500912402299615 36.667648150477056),,,,,,OTRAS,No,No,"[ { ""Contenedor_interior"":""No"" } ] ",-4.500912402299615,36.667648150477056
da_medioAmbiente_contenedoresPilas.fid-7e811540_18cccdec071_74c4,2152,Contenedor pilas Cl Conde Lucanor ,,"CALLE CONDE LUCANOR, 2 ",POINT (-4.460839747838842 36.66918496499839),,,,,,OTRAS,No,No,"[ { ""Contenedor_interior"":""No"" } ] ",-4.460839747838842,36.66918496499839
da_medioAmbiente_contenedoresPilas.fid-7e811540_18cccdec071_74c5,2139,Contenedor pilas Av Sor Teresa Prat 58,,"AVENIDA DE SOR TERESA PRAT, 58 ",POINT (-4.442547722195313 36.696245326096715),,,,,,OTRAS,No,No,"[ { ""Contenedor_interior"":""No"" } ] ",-4.442547722195313,36.696245326096715
da_medioAmbiente_contenedoresPilas.fid-7e811540_18cccdec071_74c6,2134,Contenedor pilas Av de la Luz,,"AVENIDA DE LA LUZ, 16 ",POINT (-4.452777449483086 36.69700277265635),,,,,,OTRAS,No,No,"[ { ""Contenedor_interior"":""No"" } ] ",-4.452777449483086,36.69700277265635
da_medioAmbiente_contenedoresPilas.fid-7e811540_18cccdec071_74c7,2133,Contenedor pilas Cmno San Rafael,,"CAMINO DE SAN RAFAEL, 99 ",POINT (-4.454422398648651 36.70417562153583),,,,,,OTRAS,No,No,"[ { ""Contenedor_interior"":""Si"" } ] ",-4.454422398648651,36.70417562153583
da_medioAmbiente_contenedoresPilas.fid-7e811540_18cccdec071_74c8,2071,Contenedor pilas Av de la Aurora  48,,"AVENIDA DE LA AURORA, 48 ",POINT (-4.440359201573404 36.715163129117535),,,,,,OTRAS,No,No,"[ { ""Contenedor_interior"":""No"" } ] ",-4.440359201573404,36.715163129117535
da_medioAmbiente_contenedoresPilas.fid-7e811540_18cccdec071_74c9,2118,Contenedor pilas Av de la Aurora  49,,"AVENIDA DE LA AURORA, 49 ",POINT (-4.436067248528956 36.715865660935286),,,,,,OTRAS,No,No,"[ { ""Contenedor_interior"":""No"" } ] ",-4.436067248528956,36.715865660935286
da_medioAmbiente_contenedoresPilas.fid-7e811540_18cccdec071_74ca,2078,Contenedor pilas Cl Van Gogh ,,"CALLE VAN GOGH, 4 ",POINT (-4.5380910259960165 36.72285139299863),,,,,,OTRAS,No,No,"[ { ""Contenedor_interior"":""No"" } ] ",-4.5380910259960165,36.72285139299863
da_medioAmbiente_contenedoresPilas.fid-7e811540_18cccdec071_74cb,2073,Contenedor pilas Av Gregorio Diego ,,"AVENIDA DE GREGORIO DIEGO, 46 ",POINT (-4.449011198985772 36.68827314293027),,,,,,OTRAS,No,No,"[ { ""Contenedor_interior"":""No"" } ] ",-4.449011198985772,36.68827314293027
da_medioAmbiente_contenedoresPilas.fid-7e811540_18cccdec071_74cc,2055,Contenedor pilas Almd Capuchinos,,"ALAMEDA DE CAPUCHINOS, 4 ",POINT (-4.420702210230619 36.729360931467745),,,,,,OTRAS,No,No,"[ { ""Contenedor_interior"":""No"" } ] ",-4.420702210230619,36.729360931467745
da_medioAmbiente_contenedoresPilas.fid-7e811540_18cccdec071_74cd,2151,Contenedor pilas Cl Torremolinos ,,"CALLE TORREMOLINOS, 78 ",POINT (-4.505021344055046 36.66385333596277),,,,,,OTRAS,No,No,"[ { ""Contenedor_interior"":""No"" } ] ",-4.505021344055046,36.66385333596277
da_medioAmbiente_contenedoresPilas.fid-7e811540_18cccdec071_74ce,2135,Contenedor pilas Pl Mozart ,,"PLAZA DE MOZART, 4 ",POINT (-4.450446676386034 36.69394329669444),,,,,,OTRAS,No,No,"[ { ""Contenedor_interior"":""No"" } ] ",-4.450446676386034,36.69394329669444
da_medioAmbiente_contenedoresPilas.fid-7e811540_18cccdec071_74cf,2162,Contenedor pilas Pl Pintor Sandro Botticelli ,,"PLAZA DEL PINTOR SANDRO BOTTICELLI, 1 ",POINT (-4.4604210355844 36.71956728883171),,,,,,OTRAS,No,No,"[ { ""Contenedor_interior"":""No"" } ] ",-4.4604210355844,36.71956728883171
da_medioAmbiente_contenedoresPilas.fid-7e811540_18cccdec071_74d0,2058,Contenedor pilas Cl Velez-Malaga,,"CALLE VÉLEZ MÁLAGA, 13 ",POINT (-4.411247640572181 36.71858672613184),,,,,,OTRAS,No,No,"[ { ""Contenedor_interior"":""No"" } ] ",-4.411247640572181,36.71858672613184
da_medioAmbiente_contenedoresPilas.fid-7e811540_18cccdec071_74d1,2160,Contenedor pilas Av Lope De Vega ,,"AVENIDA DE LOPE DE VEGA, 25 ",POINT (-4.469454491853633 36.731111908799214),,,,,,OTRAS,No,No,"[ { ""Contenedor_interior"":""No"" } ] ",-4.469454491853633,36.731111908799214
