FID,ID,NOMBRE,DESCRIPCION,DIRECCION,SDOGEOMETRIA,URL,EMAIL,CONTACTO,HORARIOS,PRECIOS,TITULARIDAD,TARJETAJOVEN,ACCESOPMR,INFOESP,lon,lat
da_medioAmbiente_contenedoresRopa.fid-7e811540_18cccdf8d1c_-75ae,3311,Contenedor ropa Cl Alcalde Joaquín Quiles,,"CALLE ALCALDE JOAQUÍN QUILES, 13 ",POINT (-4.419971125247433 36.74958857043151),,,,,,MUNICIPAL,No,No,,-4.419971125247433,36.74958857043151
da_medioAmbiente_contenedoresRopa.fid-7e811540_18cccdf8d1c_-75ad,3313,Contenedor ropa Cl Alcalde Nicolás Maroto,,"CALLE ALCALDE NICOLÁS MAROTO, 15 ",POINT (-4.417282408568765 36.74940546684332),,,,,,MUNICIPAL,No,No,,-4.417282408568765,36.74940546684332
da_medioAmbiente_contenedoresRopa.fid-7e811540_18cccdf8d1c_-75ac,3278,Contenedor ropa Av Juan Sebastian Elcano 195,,"AVENIDA DE JUAN SEBASTIÁN ELCANO, 195 ",POINT (-4.361040069587318 36.72122905661963),,,,,,MUNICIPAL,No,No,,-4.361040069587318,36.72122905661963
da_medioAmbiente_contenedoresRopa.fid-7e811540_18cccdf8d1c_-75ab,3380,Contenedor ropa Cl Jerez Perchet,,"CALLE JEREZ PERCHET, 9 ",POINT (-4.420808539688334 36.745843907232974),,,,,,MUNICIPAL,No,No,,-4.420808539688334,36.745843907232974
da_medioAmbiente_contenedoresRopa.fid-7e811540_18cccdf8d1c_-75aa,3348,Contenedor ropa Cl Eugenio Gross 60,,"CALLE EUGENIO GROSS, 60 ",POINT (-4.434779115166818 36.72663656115456),,,,,,MUNICIPAL,No,No,,-4.434779115166818,36.72663656115456
da_medioAmbiente_contenedoresRopa.fid-7e811540_18cccdf8d1c_-75a9,3472,Contenedor ropa Pso Cerrado De Calderon,,"PASEO CERRADO DE CALDERÓN, 16 ",POINT (-4.381510355873153 36.72542540518252),,,,,,MUNICIPAL,No,No,,-4.381510355873153,36.72542540518252
da_medioAmbiente_contenedoresRopa.fid-7e811540_18cccdf8d1c_-75a8,3279,Contenedor ropa Av Juan Sebastian Elcano 4,,"AVENIDA DE JUAN SEBASTIÁN ELCANO, 4 ",POINT (-4.3800558505008444 36.72179486882908),,,,,,MUNICIPAL,No,No,,-4.3800558505008444,36.72179486882908
da_medioAmbiente_contenedoresRopa.fid-7e811540_18cccdf8d1c_-75a7,3381,Contenedor ropa Cl Joaquín Gaztambide,,"CALLE JOAQUÍN GAZTAMBIDE, 11 ",POINT (-4.425671806508698 36.74927125655817),,,,,,MUNICIPAL,No,No,,-4.425671806508698,36.74927125655817
da_medioAmbiente_contenedoresRopa.fid-7e811540_18cccdf8d1c_-75a6,3276,Contenedor ropa Av Juan Grande De,,"AVENIDA DE JUAN GRANDE, 12 ",POINT (-4.424549752705134 36.75433221075773),,,,,,MUNICIPAL,No,No,,-4.424549752705134,36.75433221075773
da_medioAmbiente_contenedoresRopa.fid-7e811540_18cccdf8d1c_-75a5,3463,Contenedor ropa Pl Jacques Cousteau,,"PLAZA DE JACQUES COUSTEAU, 2 ",POINT (-4.428806208558689 36.752335331402506),,,,,,MUNICIPAL,No,No,,-4.428806208558689,36.752335331402506
da_medioAmbiente_contenedoresRopa.fid-7e811540_18cccdf8d1c_-75a4,3318,Contenedor ropa Cl Armengual De La Mota 1,,"CALLE ARMENGUAL DE LA MOTA, 1 ",POINT (-4.429868616253869 36.71732748546784),,,,,,MUNICIPAL,No,No,,-4.429868616253869,36.71732748546784
da_medioAmbiente_contenedoresRopa.fid-7e811540_18cccdf8d1c_-75a3,3464,"Contenedor ropa Pl Jesus ""El Rico""",,"PLAZA DE JESÚS ""EL RICO"", 5 ",POINT (-4.41678521868318 36.72239395763774),,,,,,MUNICIPAL,No,No,,-4.41678521868318,36.72239395763774
da_medioAmbiente_contenedoresRopa.fid-7e811540_18cccdf8d1c_-75a2,3391,Contenedor ropa Cl Julio Verne,,"CALLE JULIO VERNE, 3 ",POINT (-4.467120935010422 36.730359477542805),,,,,,MUNICIPAL,No,No,,-4.467120935010422,36.730359477542805
da_medioAmbiente_contenedoresRopa.fid-7e811540_18cccdf8d1c_-75a1,3319,Contenedor ropa Cl Armengual De La Mota 29,,"CALLE ARMENGUAL DE LA MOTA, 29 ",POINT (-4.42925959953494 36.720258291848324),,,,,,MUNICIPAL,No,No,,-4.42925959953494,36.720258291848324
da_medioAmbiente_contenedoresRopa.fid-7e811540_18cccdf8d1c_-75a0,3356,Contenedor ropa Cl Francisco Pacheco,,"CALLE FRANCISCO PACHECO, 11 ",POINT (-4.447715569082748 36.69138326730605),,,,,,MUNICIPAL,No,No,,-4.447715569082748,36.69138326730605
da_medioAmbiente_contenedoresRopa.fid-7e811540_18cccdf8d1c_-759f,3283,Contenedor ropa Av Miraflores De Los Ángeles,,"AVENIDA DE MIRAFLORES DE LOS ÁNGELES, 17 ",POINT (-4.440229393592914 36.730552514486504),,,,,,MUNICIPAL,No,No,,-4.440229393592914,36.730552514486504
da_medioAmbiente_contenedoresRopa.fid-7e811540_18cccdf8d1c_-759e,3322,Contenedor ropa Cl Ayala,,"CALLE AYALA, 33 ",POINT (-4.432924756491429 36.70851135454555),,,,,,MUNICIPAL,No,No,,-4.432924756491429,36.70851135454555
da_medioAmbiente_contenedoresRopa.fid-7e811540_18cccdf8d1c_-759d,3387,Contenedor ropa Cl Juan Martínez Montañés,,"CALLE JUAN MARTÍNEZ MONTAÑÉS, 7 ",POINT (-4.457607323232198 36.6924965013881),,,,,,MUNICIPAL,No,No,,-4.457607323232198,36.6924965013881
da_medioAmbiente_contenedoresRopa.fid-7e811540_18cccdf8d1c_-759c,3375,Contenedor ropa Cl Honduras,,"CALLE HONDURAS, 16 ",POINT (-4.4358332396323865 36.719923136818565),,,,,,MUNICIPAL,No,No,,-4.4358332396323865,36.719923136818565
da_medioAmbiente_contenedoresRopa.fid-7e811540_18cccdf8d1c_-759b,3406,Contenedor ropa Cl Moraima,,"CALLE MORAIMA, 1 ",POINT (-4.438718149335409 36.726739491759034),,,,,,MUNICIPAL,No,No,,-4.438718149335409,36.726739491759034
da_medioAmbiente_contenedoresRopa.fid-7e811540_18cccdf8d1c_-759a,3330,Contenedor ropa Cl Compás De La Victoria,,"CALLE COMPÁS DE LA VICTORIA, 4 ",POINT (-4.4135328164765 36.727347618993214),,,,,,MUNICIPAL,No,No,,-4.4135328164765,36.727347618993214
da_medioAmbiente_contenedoresRopa.fid-7e811540_18cccdf8d1c_-7599,3461,Contenedor ropa Pl Herbert Von Karajan,,"PLAZA DE HERBERT VON KARAJAN, 1 ",POINT (-4.4268006534494075 36.74308151474878),,,,,,MUNICIPAL,No,No,,-4.4268006534494075,36.74308151474878
da_medioAmbiente_contenedoresRopa.fid-7e811540_18cccdf8d1c_-7598,3347,Contenedor ropa Cl Eugenio Gross 26,,"CALLE EUGENIO GROSS, 36 ",POINT (-4.43550731865128 36.724607360457206),,,,,,MUNICIPAL,No,No,,-4.43550731865128,36.724607360457206
da_medioAmbiente_contenedoresRopa.fid-7e811540_18cccdf8d1c_-7597,3282,Contenedor ropa Av Manuel Gorría,,"AVENIDA DE MANUEL GORRÍA, 67 ",POINT (-4.417340354285724 36.736715686917776),,,,,,MUNICIPAL,No,No,,-4.417340354285724,36.736715686917776
da_medioAmbiente_contenedoresRopa.fid-7e811540_18cccdf8d1c_-7596,3277,Contenedor ropa Av Juan Sebastián Elcano 147,,"AVENIDA DE JUAN SEBASTIÁN ELCANO, 147 ",POINT (-4.364582611851842 36.7220939275811),,,,,,MUNICIPAL,No,No,,-4.364582611851842,36.7220939275811
da_medioAmbiente_contenedoresRopa.fid-7e811540_18cccdf8d1c_-7595,3454,Contenedor ropa Ctra Campanillas A Colmenarejo,,"CARRETERA DE CAMPANILLAS A COLMENAREJO, 3 ",POINT (-4.5338728418002 36.72666140532031),,,,,,MUNICIPAL,No,No,,-4.5338728418002,36.72666140532031
da_medioAmbiente_contenedoresRopa.fid-7e811540_18cccdf8d1c_-7594,3382,Contenedor ropa Cl José Calderón,,"CALLE JOSÉ CALDERÓN, 161 ",POINT (-4.544592453896967 36.727677868516665),,,,,,MUNICIPAL,No,No,,-4.544592453896967,36.727677868516665
da_medioAmbiente_contenedoresRopa.fid-7e811540_18cccdf8d1c_-7593,3298,Contenedor ropa Av Profesor Garcia Rodeja,,"AVENIDA PROFESOR GARCÍA RODEJA, 62 ",POINT (-4.565573239906452 36.73338186333889),,,,,,MUNICIPAL,No,No,,-4.565573239906452,36.73338186333889
da_medioAmbiente_contenedoresRopa.fid-7e811540_18cccdf8d1c_-7592,3334,Contenedor ropa Cl Cristo De La Epidemia,,"CALLE CRISTO DE LA EPIDEMIA, 47 ",POINT (-4.414749357600416 36.72916996442684),,,,,,MUNICIPAL,No,No,,-4.414749357600416,36.72916996442684
da_medioAmbiente_contenedoresRopa.fid-7e811540_18cccdf8d1c_-7591,3392,Contenedor ropa Cl Junco,,"CALLE JUNCO, 1 ",POINT (-4.489832684927579 36.74298817850058),,,,,,MUNICIPAL,No,No,,-4.489832684927579,36.74298817850058
da_medioAmbiente_contenedoresRopa.fid-7e811540_18cccdf8d1c_-7590,3424,Contenedor ropa Cl Salitre,,"CALLE SALITRE, 8 ",POINT (-4.426796917727734 36.71430567560664),,,,,,MUNICIPAL,No,No,,-4.426796917727734,36.71430567560664
da_medioAmbiente_contenedoresRopa.fid-7e811540_18cccdf8d1c_-758f,3316,Contenedor ropa Cl Antonio Chacón,,"CALLE ANTONIO CHACÓN, 5 ",POINT (-4.447881599278527 36.69914707396993),,,,,,MUNICIPAL,No,No,,-4.447881599278527,36.69914707396993
da_medioAmbiente_contenedoresRopa.fid-7e811540_18cccdf8d1c_-758e,3335,Contenedor ropa Cl Cuarteles,,"CALLE CUARTELES, 49 ",POINT (-4.42961203515194 36.71216943283751),,,,,,MUNICIPAL,No,No,,-4.42961203515194,36.71216943283751
da_medioAmbiente_contenedoresRopa.fid-7e811540_18cccdf8d1c_-758d,3341,Contenedor ropa Cl Edison,,"CALLE EDISON, 4 ",POINT (-4.435334099248118 36.712199325092456),,,,,,MUNICIPAL,No,No,,-4.435334099248118,36.712199325092456
da_medioAmbiente_contenedoresRopa.fid-7e811540_18cccdf8d1c_-758c,3354,Contenedor ropa Cl Francisco Ferrer,,"CALLE FRANCISCO FERRER, 2 ",POINT (-4.437989815990419 36.72464327989383),,,,,,MUNICIPAL,No,No,,-4.437989815990419,36.72464327989383
da_medioAmbiente_contenedoresRopa.fid-7e811540_18cccdf8d1c_-758b,3254,Contenedor ropa Av Bonaire,,"AVENIDA DE BONAIRE, 5 ",POINT (-4.455143328958223 36.6950761764306),,,,,,MUNICIPAL,No,No,,-4.455143328958223,36.6950761764306
da_medioAmbiente_contenedoresRopa.fid-7e811540_18cccdf8d1c_-758a,3284,Contenedor ropa Av Moliere 1,,"AVENIDA DE MOLIÈRE, 1 ",POINT (-4.456372489232471 36.69060123364187),,,,,,MUNICIPAL,No,No,,-4.456372489232471,36.69060123364187
da_medioAmbiente_contenedoresRopa.fid-7e811540_18cccdf8d1c_-7589,3332,Contenedor ropa Cl Corregidor Antonio De Bobadilla,,"CALLE CORREGIDOR ANTONIO DE BOBADILLA, 11 ",POINT (-4.4494414758308665 36.7122065268263),,,,,,MUNICIPAL,No,No,,-4.4494414758308665,36.7122065268263
da_medioAmbiente_contenedoresRopa.fid-7e811540_18cccdf8d1c_-7588,3291,Contenedor ropa Av Paloma 23,,"AVENIDA DE LA PALOMA, 23 ",POINT (-4.442635293437354 36.70085631152271),,,,,,MUNICIPAL,No,No,,-4.442635293437354,36.70085631152271
da_medioAmbiente_contenedoresRopa.fid-7e811540_18cccdf8d1c_-7587,3388,Contenedor ropa Cl Juan Sebastian Bach,,"CALLE JUAN SEBASTIÁN BACH, 1 ",POINT (-4.450584769624042 36.6954742958534),,,,,,MUNICIPAL,No,No,,-4.450584769624042,36.6954742958534
da_medioAmbiente_contenedoresRopa.fid-7e811540_18cccdf8d1c_-7586,3285,Contenedor ropa Av Moliere 13,,"AVENIDA DE MOLIÈRE, 13 ",POINT (-4.4544401671146545 36.68866862475792),,,,,,MUNICIPAL,No,No,,-4.4544401671146545,36.68866862475792
da_medioAmbiente_contenedoresRopa.fid-7e811540_18cccdf8d1c_-7585,3292,Contenedor ropa Av Paloma 39,,"AVENIDA DE LA PALOMA, 39 ",POINT (-4.444797152087533 36.70181855881216),,,,,,MUNICIPAL,No,No,,-4.444797152087533,36.70181855881216
da_medioAmbiente_contenedoresRopa.fid-7e811540_18cccdf8d1c_-7584,3362,Contenedor ropa Cl Góngora,,"CALLE GÓNGORA, 22 ",POINT (-4.430417930868455 36.70975431251438),,,,,,MUNICIPAL,No,No,,-4.430417930868455,36.70975431251438
da_medioAmbiente_contenedoresRopa.fid-7e811540_18cccdf8d1c_-7583,3439,Contenedor ropa Cl Virgen De La Estrella,,"CALLE VIRGEN DE LA ESTRELLA, 10 ",POINT (-4.4432927284008885 36.7163016957623),,,,,,MUNICIPAL,No,No,,-4.4432927284008885,36.7163016957623
da_medioAmbiente_contenedoresRopa.fid-7e811540_18cccdf8d1c_-7582,3473,Contenedor ropa Pso Limonar,,"PASEO DEL LIMONAR, 23 ",POINT (-4.398681739493324 36.72628153170696),,,,,,MUNICIPAL,No,No,,-4.398681739493324,36.72628153170696
da_medioAmbiente_contenedoresRopa.fid-7e811540_18cccdf8d1c_-7581,3272,Contenedor ropa Av Jane Bowles,,"AVENIDA DE JANE BOWLES, 16 ",POINT (-4.426183863975303 36.74654503269611),,,,,,MUNICIPAL,No,No,,-4.426183863975303,36.74654503269611
da_medioAmbiente_contenedoresRopa.fid-7e811540_18cccdf8d1c_-7580,3303,Contenedor ropa Av Santiago Ramon Y Cajal,,"AVENIDA DE SANTIAGO RAMÓN Y CAJAL, 65 ",POINT (-4.423063130479715 36.74483113991877),,,,,,MUNICIPAL,No,No,,-4.423063130479715,36.74483113991877
da_medioAmbiente_contenedoresRopa.fid-7e811540_18cccdf8d1c_-757f,3300,Contenedor ropa Av San Isidro,,"AVENIDA DE SAN ISIDRO, 1 ",POINT (-4.365384364325597 36.72612782992718),,,,,,MUNICIPAL,No,No,,-4.365384364325597,36.72612782992718
da_medioAmbiente_contenedoresRopa.fid-7e811540_18cccdf8d1c_-757e,3342,Contenedor ropa Cl Emilio Thuillier 108,,"CALLE EMILIO THUILLIER, 108 ",POINT (-4.4216294813859465 36.74715857260803),,,,,,MUNICIPAL,No,No,,-4.4216294813859465,36.74715857260803
da_medioAmbiente_contenedoresRopa.fid-7e811540_18cccdf8d1c_-757d,3320,Contenedor ropa Cl Arquitecto Eduardo Esteve,,"CALLE ARQUITECTO EDUARDO ESTEVE, 9 ",POINT (-4.362975576120259 36.7201196974177),,,,,,MUNICIPAL,No,No,,-4.362975576120259,36.7201196974177
da_medioAmbiente_contenedoresRopa.fid-7e811540_18cccdf8d1c_-757c,3343,Contenedor ropa Cl Emilio Thuillier 44,,"CALLE EMILIO THUILLIER, 44 ",POINT (-4.421965658977385 36.74424313614947),,,,,,MUNICIPAL,No,No,,-4.421965658977385,36.74424313614947
da_medioAmbiente_contenedoresRopa.fid-7e811540_18cccdf8d1c_-757b,3281,Contenedor ropa Av Malaga Oloroso,,"AVENIDA MÁLAGA OLOROSO, 36 ",POINT (-4.414736780157384 36.74526163151744),,,,,,MUNICIPAL,No,No,,-4.414736780157384,36.74526163151744
da_medioAmbiente_contenedoresRopa.fid-7e811540_18cccdf8d1c_-757a,3317,Contenedor ropa Cl Arbol Blanco,,"CALLE ÁRBOL BLANCO, 43 ",POINT (-4.501263243427406 36.66659458041343),,,,,,MUNICIPAL,No,No,,-4.501263243427406,36.66659458041343
da_medioAmbiente_contenedoresRopa.fid-7e811540_18cccdf8d1c_-7579,3270,Contenedor ropa Av Imperio Argentina,,"AVENIDA IMPERIO ARGENTINA, 1 ",POINT (-4.458006159508425 36.6841411748497),,,,,,MUNICIPAL,No,No,,-4.458006159508425,36.6841411748497
da_medioAmbiente_contenedoresRopa.fid-7e811540_18cccdf8d1c_-7578,3413,Contenedor ropa Cl Obsidiana,,"CALLE OBSIDIANA, 6 ",POINT (-4.456707458902093 36.71011606334617),,,,,,MUNICIPAL,No,No,,-4.456707458902093,36.71011606334617
da_medioAmbiente_contenedoresRopa.fid-7e811540_18cccdf8d1c_-7577,3411,Contenedor ropa Cl Nuestra Señora De Los Clarines 8,,"CALLE NUESTRA SEÑORA DE LOS CLARINES, 8 ",POINT (-4.439462190022762 36.729798304939436),,,,,,MUNICIPAL,No,No,,-4.439462190022762,36.729798304939436
da_medioAmbiente_contenedoresRopa.fid-7e811540_18cccdf8d1c_-7576,3423,Contenedor ropa Cl Rosa,,"CALLE ROSA, 1 ",POINT (-4.442483040785899 36.722742055537175),,,,,,MUNICIPAL,No,No,,-4.442483040785899,36.722742055537175
da_medioAmbiente_contenedoresRopa.fid-7e811540_18cccdf8d1c_-7575,3386,Contenedor ropa Cl Juan De Valdés,,"CALLE JUAN DE VALDÉS, 16 ",POINT (-4.452661886040585 36.720099974204714),,,,,,MUNICIPAL,No,No,,-4.452661886040585,36.720099974204714
da_medioAmbiente_contenedoresRopa.fid-7e811540_18cccdf8d1c_-7574,3412,Contenedor ropa Cl Nuestra Señora De Los Clarines 9,,"CALLE NUESTRA SEÑORA DE LOS CLARINES, 9 ",POINT (-4.43926463599276 36.73053531797618),,,,,,MUNICIPAL,No,No,,-4.43926463599276,36.73053531797618
da_medioAmbiente_contenedoresRopa.fid-7e811540_18cccdf8d1c_-7573,3328,Contenedor ropa Cl Ciprés,,"CALLE DEL CIPRÉS, 3 ",POINT (-4.448279285989926 36.72317753838562),,,,,,MUNICIPAL,No,No,,-4.448279285989926,36.72317753838562
da_medioAmbiente_contenedoresRopa.fid-7e811540_18cccdf8d1c_-7572,3410,Contenedor ropa Cl Nuestra Señora De Los Clarines 25,,"CALLE NUESTRA SEÑORA DE LOS CLARINES, 25 ",POINT (-4.437493500978206 36.731786191805455),,,,,,MUNICIPAL,No,No,,-4.437493500978206,36.731786191805455
da_medioAmbiente_contenedoresRopa.fid-7e811540_18cccdf8d1c_-7571,3357,Contenedor ropa Cl Franz Kafka 13,,"CALLE FRANZ KAFKA, 13 ",POINT (-4.46453210599154 36.71602229184734),,,,,,MUNICIPAL,No,No,,-4.46453210599154,36.71602229184734
da_medioAmbiente_contenedoresRopa.fid-7e811540_18cccdf8d1c_-7570,3358,Contenedor ropa Cl Franz Kafka 4,,"CALLE FRANZ KAFKA, 4 ",POINT (-4.462174380360349 36.71697083438378),,,,,,MUNICIPAL,No,No,,-4.462174380360349,36.71697083438378
da_medioAmbiente_contenedoresRopa.fid-7e811540_18cccdf8d1c_-756f,3246,Contenedor ropa Av Antonio Gaudí,,"AVENIDA DE ANTONIO GAUDÍ, 2 ",POINT (-4.456108791737215 36.697514409554365),,,,,,MUNICIPAL,No,No,,-4.456108791737215,36.697514409554365
da_medioAmbiente_contenedoresRopa.fid-7e811540_18cccdf8d1c_-756e,3385,Contenedor ropa Cl Juan De Ortega,,"CALLE DE JUAN DE ORTEGA, 22 ",POINT (-4.472989148723685 36.73079068666424),,,,,,MUNICIPAL,No,No,,-4.472989148723685,36.73079068666424
da_medioAmbiente_contenedoresRopa.fid-7e811540_18cccdf8d1c_-756d,3441,Contenedor ropa Cmno Casabermeja,,"CAMINO DE CASABERMEJA, 15 ",POINT (-4.424020873913802 36.75266396193248),,,,,,MUNICIPAL,No,No,,-4.424020873913802,36.75266396193248
da_medioAmbiente_contenedoresRopa.fid-7e811540_18cccdf8d1c_-756c,3425,Contenedor ropa Cl San Bartolome,,"CALLE SAN BARTOLOMÉ, 15 ",POINT (-4.422521619038931 36.727541004908964),,,,,,MUNICIPAL,No,No,,-4.422521619038931,36.727541004908964
da_medioAmbiente_contenedoresRopa.fid-7e811540_18cccdf8d1c_-756b,3331,Contenedor ropa Cl Córdoba,,"CALLE CÓRDOBA, 16 ",POINT (-4.4219062067113075 36.71572882773653),,,,,,MUNICIPAL,No,No,,-4.4219062067113075,36.71572882773653
da_medioAmbiente_contenedoresRopa.fid-7e811540_18cccdf8d1c_-756a,3376,Contenedor ropa Cl Horacio Lengo,,"CALLE HORACIO LENGO, 13 ",POINT (-4.4400422032568025 36.713471036740266),,,,,,MUNICIPAL,No,No,,-4.4400422032568025,36.713471036740266
da_medioAmbiente_contenedoresRopa.fid-7e811540_18cccdf8d1c_-7569,3253,Contenedor ropa Av Barcelona,,"AVENIDA DE BARCELONA, 2 ",POINT (-4.431602690621727 36.721604821455934),,,,,,MUNICIPAL,No,No,,-4.431602690621727,36.721604821455934
da_medioAmbiente_contenedoresRopa.fid-7e811540_18cccdf8d1c_-7568,3340,Contenedor ropa Cl Duero,,"CALLE DUERO, 11 ",POINT (-4.432679810357688 36.737132588593674),,,,,,MUNICIPAL,No,No,,-4.432679810357688,36.737132588593674
da_medioAmbiente_contenedoresRopa.fid-7e811540_18cccdf8d1c_-7567,3434,Contenedor ropa Cl Tomas Echeverria,,"CALLE TOMÁS ECHEVERRÍA, 2 ",POINT (-4.436168231881203 36.70456446224126),,,,,,MUNICIPAL,No,No,,-4.436168231881203,36.70456446224126
da_medioAmbiente_contenedoresRopa.fid-7e811540_18cccdf8d1c_-7566,3446,Contenedor ropa Cmno Prados De Los,,"CAMINO DE LOS PRADOS, 12 ",POINT (-4.473712668950615 36.69906347387925),,,,,,MUNICIPAL,No,No,,-4.473712668950615,36.69906347387925
da_medioAmbiente_contenedoresRopa.fid-7e811540_18cccdf8d1c_-7565,3337,Contenedor ropa Cl Decano Manuel Torriglia,,"CALLE DECANO MANUEL TORRIGLIA, 26 ",POINT (-4.510200538877044 36.674386793780855),,,,,,MUNICIPAL,No,No,,-4.510200538877044,36.674386793780855
da_medioAmbiente_contenedoresRopa.fid-7e811540_18cccdf8d1c_-7564,3394,Contenedor ropa Cl Lope De Rueda 66,,"CALLE LOPE DE RUEDA, 66 ",POINT (-4.478564901989015 36.73528262350925),,,,,,MUNICIPAL,No,No,,-4.478564901989015,36.73528262350925
da_medioAmbiente_contenedoresRopa.fid-7e811540_18cccdf8d1c_-7563,3442,Contenedor ropa Cmno Guadalmar A La Loma,,"CAMINO GUADALMAR A LA LOMA, 7 ",POINT (-4.474673380546687 36.66755450066007),,,,,,MUNICIPAL,No,No,,-4.474673380546687,36.66755450066007
da_medioAmbiente_contenedoresRopa.fid-7e811540_18cccdf8d1c_-7562,3378,Contenedor ropa Cl Ildefonso Marzo,,"CALLE ILDEFONSO MARZO, 15 ",POINT (-4.446464554205541 36.697210525104154),,,,,,MUNICIPAL,No,No,,-4.446464554205541,36.697210525104154
da_medioAmbiente_contenedoresRopa.fid-7e811540_18cccdf8d1c_-7561,3310,Contenedor ropa Cl Alcalde Joaquín Alonso,,"CALLE ALCALDE JOAQUÍN ALONSO, 1 ",POINT (-4.449981850398121 36.696922495329666),,,,,,MUNICIPAL,No,No,,-4.449981850398121,36.696922495329666
da_medioAmbiente_contenedoresRopa.fid-7e811540_18cccdf8d1c_-7560,3393,Contenedor ropa Cl Lope De Rueda 61,,"CALLE LOPE DE RUEDA, 61 ",POINT (-4.480329615629207 36.73759771065762),,,,,,MUNICIPAL,No,No,,-4.480329615629207,36.73759771065762
da_medioAmbiente_contenedoresRopa.fid-7e811540_18cccdf8d1c_-755f,3349,Contenedor ropa Cl Explanada De La Estación,,"CALLE EXPLANADA DE LA ESTACIÓN, 6 ",POINT (-4.430970091852905 36.71284374647058),,,,,,MUNICIPAL,No,No,,-4.430970091852905,36.71284374647058
da_medioAmbiente_contenedoresRopa.fid-7e811540_18cccdf8d1c_-755e,3306,Contenedor ropa Av Velázquez,,"AVENIDA DE VELÁZQUEZ, 8 ",POINT (-4.446214446633897 36.69986863025737),,,,,,MUNICIPAL,No,No,,-4.446214446633897,36.69986863025737
da_medioAmbiente_contenedoresRopa.fid-7e811540_18cccdf8d1c_-755d,3431,Contenedor ropa Cl Sondalezas,,"CALLE SONDALEZAS, 10 ",POINT (-4.4406263434514806 36.722702625588916),,,,,,MUNICIPAL,No,No,,-4.4406263434514806,36.722702625588916
da_medioAmbiente_contenedoresRopa.fid-7e811540_18cccdf8d1c_-755c,3455,Contenedor ropa Ctra Olias,,"CARRETERA DE OLÍAS, 111 ",POINT (-4.3475138689668515 36.72246750482541),,,,,,MUNICIPAL,No,No,,-4.3475138689668515,36.72246750482541
da_medioAmbiente_contenedoresRopa.fid-7e811540_18cccdf8d1c_-755b,3418,Contenedor ropa Cl Pelayo,,"CALLE PELAYO, 13 ",POINT (-4.432484930649482 36.72296146101197),,,,,,MUNICIPAL,No,No,,-4.432484930649482,36.72296146101197
da_medioAmbiente_contenedoresRopa.fid-7e811540_18cccdf8d1c_-755a,3287,Contenedor ropa Av Nuestra Señora De Las Guias,,"AVENIDA DE NUESTRA SEÑORA DE LAS GUÍAS, 4 ",POINT (-4.421361553958279 36.73812077497646),,,,,,MUNICIPAL,No,No,,-4.421361553958279,36.73812077497646
da_medioAmbiente_contenedoresRopa.fid-7e811540_18cccdf8d1c_-7559,3301,Contenedor ropa Av Santa Rosa De Lima 2,,"AVENIDA DE SANTA ROSA DE LIMA, 2 ",POINT (-4.449079422701264 36.722300904434356),,,,,,MUNICIPAL,No,No,,-4.449079422701264,36.722300904434356
da_medioAmbiente_contenedoresRopa.fid-7e811540_18cccdf8d1c_-7558,3433,Contenedor ropa Cl Tácito,,"CALLE TÁCITO, 1 ",POINT (-4.4838056458977835 36.722071419243754),,,,,,MUNICIPAL,No,No,,-4.4838056458977835,36.722071419243754
da_medioAmbiente_contenedoresRopa.fid-7e811540_18cccdf8d1c_-7557,3302,Contenedor ropa Av Santa Rosa De Lima 24,,"AVENIDA DE SANTA ROSA DE LIMA, 24 ",POINT (-4.449465619475877 36.719444746846186),,,,,,MUNICIPAL,No,No,,-4.449465619475877,36.719444746846186
da_medioAmbiente_contenedoresRopa.fid-7e811540_18cccdf8d1c_-7556,3475,Contenedor ropa Pso Tilos Los,,"PASEO DE LOS TILOS, 55 ",POINT (-4.438140186975786 36.712734679809735),,,,,,MUNICIPAL,No,No,,-4.438140186975786,36.712734679809735
da_medioAmbiente_contenedoresRopa.fid-7e811540_18cccdf8d1c_-7555,3293,Contenedor ropa Av Pepita Durán,,"AVENIDA DE PEPITA DURÁN, 32 ",POINT (-4.4706783788275315 36.72132808701515),,,,,,MUNICIPAL,No,No,,-4.4706783788275315,36.72132808701515
da_medioAmbiente_contenedoresRopa.fid-7e811540_18cccdf8d1c_-7554,3468,Contenedor ropa Pl Moreno Villa,,"PLAZA DE MORENO VILLA, 9 ",POINT (-4.434405877083647 36.706249153377165),,,,,,MUNICIPAL,No,No,,-4.434405877083647,36.706249153377165
da_medioAmbiente_contenedoresRopa.fid-7e811540_18cccdf8d1c_-7553,3428,Contenedor ropa Cl Sánchez Albarrán,,"CALLE SÁNCHEZ ALBARRÁN, 16 ",POINT (-4.419974977090853 36.74670611248885),,,,,,MUNICIPAL,No,No,,-4.419974977090853,36.74670611248885
da_medioAmbiente_contenedoresRopa.fid-7e811540_18cccdf8d1c_-7552,3443,Contenedor ropa Cmno Huertecilla,,"CAMINO HUERTECILLA, 45 ",POINT (-4.5071958933644245 36.67359621992901),,,,,,MUNICIPAL,No,No,,-4.5071958933644245,36.67359621992901
da_medioAmbiente_contenedoresRopa.fid-7e811540_18cccdf8d1c_-7551,3444,Contenedor ropa Cmno Nuevo,,"CAMINO NUEVO, 4 ",POINT (-4.503827370906272 36.66981365470165),,,,,,MUNICIPAL,No,No,,-4.503827370906272,36.66981365470165
da_medioAmbiente_contenedoresRopa.fid-7e811540_18cccdf8d1c_-7550,3453,Contenedor ropa Cril Cordobesa,,"CARRIL DE LA CORDOBESA, 14 ",POINT (-4.440199943824236 36.707911473221635),,,,,,MUNICIPAL,No,No,,-4.440199943824236,36.707911473221635
da_medioAmbiente_contenedoresRopa.fid-7e811540_18cccdf8d1c_-754f,3323,Contenedor ropa Cl Blas De Lezo,,"CALLE BLAS DE LEZO, 19 ",POINT (-4.434609794265263 36.72867829642944),,,,,,MUNICIPAL,No,No,,-4.434609794265263,36.72867829642944
da_medioAmbiente_contenedoresRopa.fid-7e811540_18cccdf8d1c_-754e,3324,Contenedor ropa Cl Bratislava,,"CALLE BRATISLAVA, 8 ",POINT (-4.543621635298429 36.722505046407726),,,,,,MUNICIPAL,No,No,,-4.543621635298429,36.722505046407726
da_medioAmbiente_contenedoresRopa.fid-7e811540_18cccdf8d1c_-754d,3353,Contenedor ropa Cl Ferrandiz 74,,"CALLE FERRÁNDIZ, 74 ",POINT (-4.406489167345265 36.72734195406583),,,,,,MUNICIPAL,No,No,,-4.406489167345265,36.72734195406583
da_medioAmbiente_contenedoresRopa.fid-7e811540_18cccdf8d1c_-754c,3314,Contenedor ropa Cl Almeria,,"CALLE ALMERÍA, 65 ",POINT (-4.355375236345232 36.72053840843893),,,,,,MUNICIPAL,No,No,,-4.355375236345232,36.72053840843893
da_medioAmbiente_contenedoresRopa.fid-7e811540_18cccdf8d1c_-754b,3261,Contenedor ropa Av Cibeles,,"AVENIDA DE LA CIBELES, 10 ",POINT (-4.41988490539649 36.73884917923121),,,,,,MUNICIPAL,No,No,,-4.41988490539649,36.73884917923121
da_medioAmbiente_contenedoresRopa.fid-7e811540_18cccdf8d1c_-754a,3295,Contenedor ropa Av Pio Baroja 5,,"AVENIDA DE PÍO BAROJA, 5 ",POINT (-4.364853554525345 36.720543835459104),,,,,,MUNICIPAL,No,No,,-4.364853554525345,36.720543835459104
da_medioAmbiente_contenedoresRopa.fid-7e811540_18cccdf8d1c_-7549,3294,Contenedor ropa Av Pío Baroja 24,,"AVENIDA DE PÍO BAROJA, 24 ",POINT (-4.361745207859201 36.7201886432558),,,,,,MUNICIPAL,No,No,,-4.361745207859201,36.7201886432558
da_medioAmbiente_contenedoresRopa.fid-7e811540_18cccdf8d1c_-7548,3263,Contenedor ropa Av Escritor Antonio Soler,,"AVENIDA ESCRITOR ANTONIO SOLER, 17 ",POINT (-4.492896087969358 36.723174464949835),,,,,,MUNICIPAL,No,No,,-4.492896087969358,36.723174464949835
da_medioAmbiente_contenedoresRopa.fid-7e811540_18cccdf8d1c_-7547,3405,Contenedor ropa Cl Monseñor Oscar Romero,,"CALLE MONSEÑOR ÓSCAR ROMERO, 3 ",POINT (-4.440349079603144 36.71566349391857),,,,,,MUNICIPAL,No,No,,-4.440349079603144,36.71566349391857
da_medioAmbiente_contenedoresRopa.fid-7e811540_18cccdf8d1c_-7546,3273,Contenedor ropa Av Jorge Luis Borges,,"AVENIDA DE JORGE LUIS BORGES, 17 ",POINT (-4.462452691223569 36.71967982609402),,,,,,MUNICIPAL,No,No,,-4.462452691223569,36.71967982609402
da_medioAmbiente_contenedoresRopa.fid-7e811540_18cccdf8d1c_-7545,3257,Contenedor ropa Av Carlos De Haya 202,,"AVENIDA CARLOS DE HAYA, 202 ",POINT (-4.457320414829873 36.72533296554085),,,,,,MUNICIPAL,No,No,,-4.457320414829873,36.72533296554085
da_medioAmbiente_contenedoresRopa.fid-7e811540_18cccdf8d1c_-7544,3363,Contenedor ropa Cl Gonzalo Torrente Ballester,,"CALLE GONZALO TORRENTE BALLESTER, 5 ",POINT (-4.462723200014482 36.69432091967545),,,,,,MUNICIPAL,No,No,,-4.462723200014482,36.69432091967545
da_medioAmbiente_contenedoresRopa.fid-7e811540_18cccdf8d1c_-7543,3271,Contenedor ropa Av Isaac Peral,,"AVENIDA DE ISAAC PERAL, 27 ",POINT (-4.457559143622999 36.69412758555525),,,,,,MUNICIPAL,No,No,,-4.457559143622999,36.69412758555525
da_medioAmbiente_contenedoresRopa.fid-7e811540_18cccdf8d1c_-7542,3466,Contenedor ropa Pl José Bergamín,,"PLAZA JOSÉ BERGAMÍN, 12 ",POINT (-4.454218717465257 36.719713856132664),,,,,,MUNICIPAL,No,No,,-4.454218717465257,36.719713856132664
da_medioAmbiente_contenedoresRopa.fid-7e811540_18cccdf8d1c_-7541,3333,Contenedor ropa Cl Corregidor Francisco De Molina,,"CALLE CORREGIDOR FRANCISCO DE MOLINA, 10 ",POINT (-4.450471200532832 36.71320156687471),,,,,,MUNICIPAL,No,No,,-4.450471200532832,36.71320156687471
da_medioAmbiente_contenedoresRopa.fid-7e811540_18cccdf8d1c_-7540,3456,Contenedor ropa Pje Begoña,,"PASAJE BEGOÑA, 3 ",POINT (-4.4377690651442965 36.72303709405519),,,,,,MUNICIPAL,No,No,,-4.4377690651442965,36.72303709405519
da_medioAmbiente_contenedoresRopa.fid-7e811540_18cccdf8d1c_-753f,3365,Contenedor ropa Cl Guadiaro,,"CALLE GUADIARO, 14 ",POINT (-4.445283733020778 36.69897871290393),,,,,,MUNICIPAL,No,No,,-4.445283733020778,36.69897871290393
da_medioAmbiente_contenedoresRopa.fid-7e811540_18cccdf8d1c_-753e,3399,Contenedor ropa Cl Marqués De Ovieco,,"CALLE MARQUÉS DE OVIECO, 9 ",POINT (-4.437613246090767 36.728624618448784),,,,,,MUNICIPAL,No,No,,-4.437613246090767,36.728624618448784
da_medioAmbiente_contenedoresRopa.fid-7e811540_18cccdf8d1c_-753d,3259,Contenedor ropa Av Carlos De Haya 76,,"AVENIDA CARLOS DE HAYA, 76 ",POINT (-4.447936477084616 36.72243320761032),,,,,,MUNICIPAL,No,No,,-4.447936477084616,36.72243320761032
da_medioAmbiente_contenedoresRopa.fid-7e811540_18cccdf8d1c_-753c,3336,Contenedor ropa Cl Decano Ignacio Alaminos,,"CALLE DECANO IGNACIO ALAMINOS, 5 ",POINT (-4.409677803156678 36.735702021411846),,,,,,MUNICIPAL,No,No,,-4.409677803156678,36.735702021411846
da_medioAmbiente_contenedoresRopa.fid-7e811540_18cccdf8d1c_-753b,3384,Contenedor ropa Cl Juan Cabanilles,,"CALLE JUAN CABANILLES, 13 ",POINT (-4.380703945890046 36.73749213457453),,,,,,MUNICIPAL,No,No,,-4.380703945890046,36.73749213457453
da_medioAmbiente_contenedoresRopa.fid-7e811540_18cccdf8d1c_-753a,3247,Contenedor ropa Av Arroyo De Los Angeles 28,,"AVENIDA DEL ARROYO DE LOS ÁNGELES, 28 ",POINT (-4.428893660948485 36.72787802610178),,,,,,MUNICIPAL,No,No,,-4.428893660948485,36.72787802610178
da_medioAmbiente_contenedoresRopa.fid-7e811540_18cccdf8d1c_-7539,3474,Contenedor ropa Pso Reding,,"PASEO DE REDING, 24 ",POINT (-4.407762445304035 36.72084402326978),,,,,,MUNICIPAL,No,No,,-4.407762445304035,36.72084402326978
da_medioAmbiente_contenedoresRopa.fid-7e811540_18cccdf8d1c_-7538,3248,Contenedor ropa Av Arroyo De Los Ángeles 5,,"AVENIDA DEL ARROYO DE LOS ÁNGELES, 5 ",POINT (-4.4288256033301625 36.727493763103546),,,,,,MUNICIPAL,No,No,,-4.4288256033301625,36.727493763103546
da_medioAmbiente_contenedoresRopa.fid-7e811540_18cccdf8d1c_-7537,3397,Contenedor ropa Cl Mármoles,,"CALLE MÁRMOLES, 16 ",POINT (-4.427267684333931 36.721751265750704),,,,,,MUNICIPAL,No,No,,-4.427267684333931,36.721751265750704
da_medioAmbiente_contenedoresRopa.fid-7e811540_18cccdf8d1c_-7536,3377,Contenedor ropa Cl Idris,,"CALLE IDRIS, 1 ",POINT (-4.396577478663516 36.72320671352982),,,,,,MUNICIPAL,No,No,,-4.396577478663516,36.72320671352982
da_medioAmbiente_contenedoresRopa.fid-7e811540_18cccdf8d1c_-7535,3422,Contenedor ropa Cl Reding,,"CALLE REDING, 17 ",POINT (-4.411103346380502 36.71775208458276),,,,,,MUNICIPAL,No,No,,-4.411103346380502,36.71775208458276
da_medioAmbiente_contenedoresRopa.fid-7e811540_18cccdf8d1c_-7534,3315,Contenedor ropa Cl Amador De Los Rios,,"CALLE AMADOR DE LOS RÍOS, 23 ",POINT (-4.3693526092692725 36.72554572926087),,,,,,MUNICIPAL,No,No,,-4.3693526092692725,36.72554572926087
da_medioAmbiente_contenedoresRopa.fid-7e811540_18cccdf8d1c_-7533,3268,Contenedor ropa Av Fátima,,"AVENIDA DE FÁTIMA, 10 ",POINT (-4.426364955471993 36.72401087163491),,,,,,MUNICIPAL,No,No,,-4.426364955471993,36.72401087163491
da_medioAmbiente_contenedoresRopa.fid-7e811540_18cccdf8d1c_-7532,3352,Contenedor ropa Cl Ferrandiz 18,,"CALLE FERRÁNDIZ, 18 ",POINT (-4.412549526438373 36.72712321908102),,,,,,MUNICIPAL,No,No,,-4.412549526438373,36.72712321908102
da_medioAmbiente_contenedoresRopa.fid-7e811540_18cccdf8d1c_-7531,3364,Contenedor ropa Cl Guadalhorce,,"CALLE GUADALHORCE, 1 ",POINT (-4.464732138041772 36.66932648386197),,,,,,MUNICIPAL,No,No,,-4.464732138041772,36.66932648386197
da_medioAmbiente_contenedoresRopa.fid-7e811540_18cccdf8d1c_-7530,3296,Contenedor ropa Av Plutarco 26,,"AVENIDA DE PLUTARCO, 26 ",POINT (-4.476119521950166 36.72095932878959),,,,,,MUNICIPAL,No,No,,-4.476119521950166,36.72095932878959
da_medioAmbiente_contenedoresRopa.fid-7e811540_18cccdf8d1c_-752f,3390,Contenedor ropa Cl Juana Castro,,"CALLE JUANA CASTRO, 2 ",POINT (-4.468782921345107 36.7249595663285),,,,,,MUNICIPAL,No,No,,-4.468782921345107,36.7249595663285
da_medioAmbiente_contenedoresRopa.fid-7e811540_18cccdf8d1c_-752e,3395,Contenedor ropa Cl Maestro Pablo Luna,,"CALLE MAESTRO PABLO LUNA, 1 ",POINT (-4.443801345627197 36.725050289972174),,,,,,MUNICIPAL,No,No,,-4.443801345627197,36.725050289972174
da_medioAmbiente_contenedoresRopa.fid-7e811540_18cccdf8d1c_-752d,3414,Contenedor ropa Cl Pablo Gargallo,,"CALLE PABLO GARGALLO, 8 ",POINT (-4.469036595943112 36.72185778641836),,,,,,MUNICIPAL,No,No,,-4.469036595943112,36.72185778641836
da_medioAmbiente_contenedoresRopa.fid-7e811540_18cccdf8d1c_-752c,3367,Contenedor ropa Cl Héroe De Sostoa 128,,"CALLE HÉROE DE SOSTOA, 128 ",POINT (-4.438694450716319 36.705501674946525),,,,,,MUNICIPAL,No,No,,-4.438694450716319,36.705501674946525
da_medioAmbiente_contenedoresRopa.fid-7e811540_18cccdf8d1c_-752b,3369,Contenedor ropa Cl Héroe De Sostoa 170,,"CALLE HÉROE DE SOSTOA, 170 ",POINT (-4.4422337629046496 36.7026508044258),,,,,,MUNICIPAL,No,No,,-4.4422337629046496,36.7026508044258
da_medioAmbiente_contenedoresRopa.fid-7e811540_18cccdf8d1c_-752a,3244,Contenedor ropa Almd Colón,,"ALAMEDA DE COLÓN, 8 ",POINT (-4.424981329380944 36.715652092259774),,,,,,MUNICIPAL,No,No,,-4.424981329380944,36.715652092259774
da_medioAmbiente_contenedoresRopa.fid-7e811540_18cccdf8d1c_-7529,3459,Contenedor ropa Pl Cruz De Humilladero,,"PLAZA CRUZ DE HUMILLADERO, 8 ",POINT (-4.440890001292753 36.71243058634687),,,,,,MUNICIPAL,No,No,,-4.440890001292753,36.71243058634687
da_medioAmbiente_contenedoresRopa.fid-7e811540_18cccdf8d1c_-7528,3245,Contenedor ropa Av Andersen,,"AVENIDA DE ANDERSEN, 22 ",POINT (-4.482385579569677 36.73726713485575),,,,,,MUNICIPAL,No,No,,-4.482385579569677,36.73726713485575
da_medioAmbiente_contenedoresRopa.fid-7e811540_18cccdf8d1c_-7527,3312,Contenedor ropa Cl Alcalde José Luis Estrada,,"CALLE ALCALDE JOSÉ LUIS ESTRADA, 16 ",POINT (-4.44764425963022 36.730885652244055),,,,,,MUNICIPAL,No,No,,-4.44764425963022,36.730885652244055
da_medioAmbiente_contenedoresRopa.fid-7e811540_18cccdf8d1c_-7526,3258,Contenedor ropa Av Carlos De Haya 58,,"AVENIDA CARLOS DE HAYA, 58 ",POINT (-4.446001016345605 36.72205581982988),,,,,,MUNICIPAL,No,No,,-4.446001016345605,36.72205581982988
da_medioAmbiente_contenedoresRopa.fid-7e811540_18cccdf8d1c_-7525,3256,Contenedor ropa Av Carlos De Haya 105,,"AVENIDA CARLOS DE HAYA, 105 ",POINT (-4.452890880477407 36.72304274313826),,,,,,MUNICIPAL,No,No,,-4.452890880477407,36.72304274313826
da_medioAmbiente_contenedoresRopa.fid-7e811540_18cccdf8d1c_-7524,3329,Contenedor ropa Cl Cirilo Salinas,,"CALLE CIRILO SALINAS, 26 ",POINT (-4.462952869333362 36.7317134882106),,,,,,MUNICIPAL,No,No,,-4.462952869333362,36.7317134882106
da_medioAmbiente_contenedoresRopa.fid-7e811540_18cccdf8d1c_-7523,3452,Contenedor ropa Cril Conde,,"CARRIL DEL CONDE, 1 ",POINT (-4.452042102221111 36.695307167037484),,,,,,MUNICIPAL,No,No,,-4.452042102221111,36.695307167037484
da_medioAmbiente_contenedoresRopa.fid-7e811540_18cccdf8d1c_-7522,3274,Contenedor ropa Av José Ortega Y Gasset 115,,"AVENIDA DE JOSÉ ORTEGA Y GASSET, 115 ",POINT (-4.451795562899858 36.710047635463255),,,,,,MUNICIPAL,No,No,,-4.451795562899858,36.710047635463255
da_medioAmbiente_contenedoresRopa.fid-7e811540_18cccdf8d1c_-7521,3457,Contenedor ropa Pl Aparejador Federico Bermúdez,,"PLAZA APAREJADOR FEDERICO BERMÚDEZ, 2 ",POINT (-4.439976007791185 36.721043680263655),,,,,,MUNICIPAL,No,No,,-4.439976007791185,36.721043680263655
da_medioAmbiente_contenedoresRopa.fid-7e811540_18cccdf8d1c_-7520,3419,Contenedor ropa Cl Pilar Lorengar,,"CALLE PILAR LORENGAR, 5 ",POINT (-4.452856617431543 36.6831379118788),,,,,,MUNICIPAL,No,No,,-4.452856617431543,36.6831379118788
da_medioAmbiente_contenedoresRopa.fid-7e811540_18cccdf8d1c_-751f,3249,Contenedor ropa Av Arroyo De Los Ángeles 83,,"AVENIDA DEL ARROYO DE LOS ÁNGELES, 83 ",POINT (-4.435722966665507 36.730545389505615),,,,,,MUNICIPAL,No,No,,-4.435722966665507,36.730545389505615
da_medioAmbiente_contenedoresRopa.fid-7e811540_18cccdf8d1c_-751e,3297,Contenedor ropa Av Plutarco 59,,"AVENIDA DE PLUTARCO, 59 ",POINT (-4.479124159798549 36.721680672978074),,,,,,MUNICIPAL,No,No,,-4.479124159798549,36.721680672978074
da_medioAmbiente_contenedoresRopa.fid-7e811540_18cccdf8d1c_-751d,3421,Contenedor ropa Cl Reboul,,"CALLE REBOUL, 34 ",POINT (-4.440893257070189 36.7093719689026),,,,,,MUNICIPAL,No,No,,-4.440893257070189,36.7093719689026
da_medioAmbiente_contenedoresRopa.fid-7e811540_18cccdf8d1c_-751c,3260,Contenedor ropa Av Carlos De Haya 79,,"AVENIDA CARLOS DE HAYA, 79 ",POINT (-4.450009050098861 36.72257240222471),,,,,,MUNICIPAL,No,No,,-4.450009050098861,36.72257240222471
da_medioAmbiente_contenedoresRopa.fid-7e811540_18cccdf8d1c_-751b,3429,Contenedor ropa Cl Sancho Miranda,,"CALLE SANCHO MIRANDA, 22 ",POINT (-4.4182196070024515 36.748084233695955),,,,,,MUNICIPAL,No,No,,-4.4182196070024515,36.748084233695955
da_medioAmbiente_contenedoresRopa.fid-7e811540_18cccdf8d1c_-751a,3437,Contenedor ropa Cl Villafuerte,,"CALLE VILLAFUERTE, 44 ",POINT (-4.359041276095733 36.72426803236862),,,,,,MUNICIPAL,No,No,,-4.359041276095733,36.72426803236862
da_medioAmbiente_contenedoresRopa.fid-7e811540_18cccdf8d1c_-7519,3427,Contenedor ropa Cl San Rafael,,"CALLE SAN RAFAEL, 2 ",POINT (-4.425245312511451 36.72328843487782),,,,,,MUNICIPAL,No,No,,-4.425245312511451,36.72328843487782
da_medioAmbiente_contenedoresRopa.fid-7e811540_18cccdf8d1c_-7518,3355,Contenedor ropa Cl Francisco Jimenez Lomas,,"CALLE FRANCISCO JIMÉNEZ LOMAS, 9 ",POINT (-4.445658437227313 36.694351220657374),,,,,,MUNICIPAL,No,No,,-4.445658437227313,36.694351220657374
da_medioAmbiente_contenedoresRopa.fid-7e811540_18cccdf8d1c_-7517,3275,Contenedor ropa Av Jose Ortega Y Gasset 43,,"AVENIDA DE JOSÉ ORTEGA Y GASSET, 43 ",POINT (-4.446727171722371 36.71098589858135),,,,,,MUNICIPAL,No,No,,-4.446727171722371,36.71098589858135
da_medioAmbiente_contenedoresRopa.fid-7e811540_18cccdf8d1c_-7516,3430,Contenedor ropa Cl Sierra De Grazalema,,"CALLE SIERRA DE GRAZALEMA, 34 ",POINT (-4.403113967170279 36.73236194193702),,,,,,MUNICIPAL,No,No,,-4.403113967170279,36.73236194193702
da_medioAmbiente_contenedoresRopa.fid-7e811540_18cccdf8d1c_-7515,3368,Contenedor ropa Cl Héroe De Sostoa 14,,"CALLE HÉROE DE SOSTOA, 14 ",POINT (-4.433067090828189 36.709927870143176),,,,,,MUNICIPAL,No,No,,-4.433067090828189,36.709927870143176
da_medioAmbiente_contenedoresRopa.fid-7e811540_18cccdf8d1c_-7514,3470,Contenedor ropa Pl Olletas,,"PLAZA DE OLLETAS, 7 ",POINT (-4.415965389866936 36.733398016644195),,,,,,MUNICIPAL,No,No,,-4.415965389866936,36.733398016644195
da_medioAmbiente_contenedoresRopa.fid-7e811540_18cccdf8d1c_-7513,3346,Contenedor ropa Cl Escritora Carmen Bravo-Villasante,,"CALLE ESCRITORA CARMEN BRAVO-VILLASANTE, 12 ",POINT (-4.512343148457972 36.66741698292719),,,,,,MUNICIPAL,No,No,,-4.512343148457972,36.66741698292719
da_medioAmbiente_contenedoresRopa.fid-7e811540_18cccdf8d1c_-7512,3403,Contenedor ropa Cl Mercedes Formica,,"CALLE MERCEDES FÓRMICA, 4 ",POINT (-4.505621359150893 36.659366415436935),,,,,,MUNICIPAL,No,No,,-4.505621359150893,36.659366415436935
da_medioAmbiente_contenedoresRopa.fid-7e811540_18cccdf8d1c_-7511,3321,Contenedor ropa Cl Atarazanas,,"CALLE ATARAZANAS, 10 ",POINT (-4.42450324770335 36.71800641042839),,,,,,MUNICIPAL,No,No,,-4.42450324770335,36.71800641042839
da_medioAmbiente_contenedoresRopa.fid-7e811540_18cccdf8d1c_-7510,3396,Contenedor ropa Cl Maestro Serrano,,"CALLE MAESTRO SERRANO, 83 ",POINT (-4.501410692251262 36.6621620196469),,,,,,MUNICIPAL,No,No,,-4.501410692251262,36.6621620196469
da_medioAmbiente_contenedoresRopa.fid-7e811540_18cccdf8d1c_-750f,3266,Contenedor ropa Av Europa 68,,"AVENIDA DE EUROPA, 60 ",POINT (-4.451792375136245 36.70051124654892),,,,,,MUNICIPAL,No,No,,-4.451792375136245,36.70051124654892
da_medioAmbiente_contenedoresRopa.fid-7e811540_18cccdf8d1c_-750e,3267,Contenedor ropa Av Europa 99,,"AVENIDA DE EUROPA, 99 ",POINT (-4.452925535382544 36.69955091020245),,,,,,MUNICIPAL,No,No,,-4.452925535382544,36.69955091020245
da_medioAmbiente_contenedoresRopa.fid-7e811540_18cccdf8d1c_-750d,3416,Contenedor ropa Cl Pacífico 57,,"CALLE PACÍFICO, 57 ",POINT (-4.4428222485150375 36.68966601380937),,,,,,MUNICIPAL,No,No,,-4.4428222485150375,36.68966601380937
da_medioAmbiente_contenedoresRopa.fid-7e811540_18cccdf8d1c_-750c,3383,Contenedor ropa Cl Jose Iturbi,,"CALLE DE JOSÉ ITURBI, 1 ",POINT (-4.442906466890361 36.725727833046406),,,,,,MUNICIPAL,No,No,,-4.442906466890361,36.725727833046406
da_medioAmbiente_contenedoresRopa.fid-7e811540_18cccdf8d1c_-750b,3304,Contenedor ropa Av Simón Bolívar,,"AVENIDA DE SIMÓN BOLÍVAR, 9 ",POINT (-4.4339629750943415 36.733908427944634),,,,,,MUNICIPAL,No,No,,-4.4339629750943415,36.733908427944634
da_medioAmbiente_contenedoresRopa.fid-7e811540_18cccdf8d1c_-750a,3299,Contenedor ropa Av Salvador Allende,,"AVENIDA DE SALVADOR ALLENDE, 338 ",POINT (-4.348911617566631 36.71729508610566),,,,,,MUNICIPAL,No,No,,-4.348911617566631,36.71729508610566
da_medioAmbiente_contenedoresRopa.fid-7e811540_18cccdf8d1c_-7509,3373,Contenedor ropa Cl Hilera 26,,"CALLE HILERA, 26 ",POINT (-4.435945701139949 36.7188091524315),,,,,,MUNICIPAL,No,No,,-4.435945701139949,36.7188091524315
da_medioAmbiente_contenedoresRopa.fid-7e811540_18cccdf8d1c_-7508,3417,Contenedor ropa Cl Pedro Gómez Chaix,,"CALLE PEDRO GÓMEZ CHAIX, 8 ",POINT (-4.440731849277692 36.71770923834561),,,,,,MUNICIPAL,No,No,,-4.440731849277692,36.71770923834561
da_medioAmbiente_contenedoresRopa.fid-7e811540_18cccdf8d1c_-7507,3415,Contenedor ropa Cl Pacífico 35,,"CALLE PACÍFICO, 35 ",POINT (-4.440351658985141 36.693760161747896),,,,,,MUNICIPAL,No,No,,-4.440351658985141,36.693760161747896
da_medioAmbiente_contenedoresRopa.fid-7e811540_18cccdf8d1c_-7506,3265,Contenedor ropa Av Europa 52,,"AVENIDA DE EUROPA, 52 ",POINT (-4.449767430895542 36.70142389381434),,,,,,MUNICIPAL,No,No,,-4.449767430895542,36.70142389381434
da_medioAmbiente_contenedoresRopa.fid-7e811540_18cccdf8d1c_-7505,3409,Contenedor ropa Cl Navarro Ledesma 3,,"CALLE NAVARRO LEDESMA, 3 ",POINT (-4.460462552478655 36.72556198320447),,,,,,MUNICIPAL,No,No,,-4.460462552478655,36.72556198320447
da_medioAmbiente_contenedoresRopa.fid-7e811540_18cccdf8d1c_-7504,3408,Contenedor ropa Cl Navarro Ledesma 166,,"CALLE NAVARRO LEDESMA, 166 ",POINT (-4.4796973122627195 36.72479284123719),,,,,,MUNICIPAL,No,No,,-4.4796973122627195,36.72479284123719
da_medioAmbiente_contenedoresRopa.fid-7e811540_18cccdf8d1c_-7503,3445,Contenedor ropa Cmno Pato Del,,"CAMINO DEL PATO, 32 ",POINT (-4.45206350591396 36.68882553841069),,,,,,MUNICIPAL,No,No,,-4.45206350591396,36.68882553841069
da_medioAmbiente_contenedoresRopa.fid-7e811540_18cccdf8d1c_-7502,3374,Contenedor ropa Cl Hilera 6,,"CALLE HILERA, 6 ",POINT (-4.428164092910133 36.717963310946715),,,,,,MUNICIPAL,No,No,,-4.428164092910133,36.717963310946715
da_medioAmbiente_contenedoresRopa.fid-7e811540_18cccdf8d1c_-7501,3371,Contenedor ropa Cl Hilera 13,,"CALLE HILERA, 13 ",POINT (-4.434325702840852 36.71930592459499),,,,,,MUNICIPAL,No,No,,-4.434325702840852,36.71930592459499
da_medioAmbiente_contenedoresRopa.fid-7e811540_18cccdf8d1c_-7500,3325,Contenedor ropa Cl Cañizares,,"CALLE CAÑIZARES, 7 ",POINT (-4.435519229182711 36.701853892675864),,,,,,MUNICIPAL,No,No,,-4.435519229182711,36.701853892675864
da_medioAmbiente_contenedoresRopa.fid-7e811540_18cccdf8d1c_-74ff,3440,Contenedor ropa Cl Virgen De La Fuensanta,,"CALLE VIRGEN DE LA FUENSANTA, 48 ",POINT (-4.447130623791058 36.71404131076248),,,,,,MUNICIPAL,No,No,,-4.447130623791058,36.71404131076248
da_medioAmbiente_contenedoresRopa.fid-7e811540_18cccdf8d1c_-74fe,3407,Contenedor ropa Cl Navarro Ledesma 148,,"CALLE NAVARRO LEDESMA, 148 ",POINT (-4.474299618362877 36.724677852455514),,,,,,MUNICIPAL,No,No,,-4.474299618362877,36.724677852455514
da_medioAmbiente_contenedoresRopa.fid-7e811540_18cccdf8d1c_-74fd,3370,Contenedor ropa Cl Hilera 10,,"CALLE HILERA, 10 ",POINT (-4.431097061938765 36.71882244389559),,,,,,MUNICIPAL,No,No,,-4.431097061938765,36.71882244389559
da_medioAmbiente_contenedoresRopa.fid-7e811540_18cccdf8d1c_-74fc,3264,Contenedor ropa Av Europa 117,,"AVENIDA DE EUROPA, 117 ",POINT (-4.454603830602739 36.69851063179402),,,,,,MUNICIPAL,No,No,,-4.454603830602739,36.69851063179402
da_medioAmbiente_contenedoresRopa.fid-7e811540_18cccdf8d1c_-74fb,3389,Contenedor ropa Cl Juan Vázquez,,"CALLE JUAN VÁZQUEZ, 1 ",POINT (-4.37905421186468 36.735927499231764),,,,,,MUNICIPAL,No,No,,-4.37905421186468,36.735927499231764
da_medioAmbiente_contenedoresRopa.fid-7e811540_18cccdf8d1c_-74fa,3465,Contenedor ropa Pl John F. Kennedy,,"PLAZA DE JOHN F. KENNEDY, 3 ",POINT (-4.423742817906659 36.75005840789428),,,,,,MUNICIPAL,No,No,,-4.423742817906659,36.75005840789428
da_medioAmbiente_contenedoresRopa.fid-7e811540_18cccdf8d1c_-74f9,3255,Contenedor ropa Av Caballerizas Las,,"AVENIDA DE LAS CABALLERIZAS, 31 ",POINT (-4.3973528277004865 36.73239917799478),,,,,,MUNICIPAL,No,No,,-4.3973528277004865,36.73239917799478
da_medioAmbiente_contenedoresRopa.fid-7e811540_18cccdf8d1c_-74f8,3432,Contenedor ropa Cl Sor Juana Inés De La Cruz,,"CALLE SOR JUANA INÉS DE LA CRUZ, 2 ",POINT (-4.418587426544596 36.75262532333108),,,,,,MUNICIPAL,No,No,,-4.418587426544596,36.75262532333108
da_medioAmbiente_contenedoresRopa.fid-7e811540_18cccdf8d1c_-74f7,3350,Contenedor ropa Cl Federico Fellini 34,,"CALLE FEDERICO FELLINI, 34 ",POINT (-4.3895448309991805 36.727474755205954),,,,,,MUNICIPAL,No,No,,-4.3895448309991805,36.727474755205954
da_medioAmbiente_contenedoresRopa.fid-7e811540_18cccdf8d1c_-74f6,3398,Contenedor ropa Cl Marqués De Mantua,,"CALLE DEL MARQUÉS DE MANTUA, 9 ",POINT (-4.416809322373562 36.75090863407527),,,,,,MUNICIPAL,No,No,,-4.416809322373562,36.75090863407527
da_medioAmbiente_contenedoresRopa.fid-7e811540_18cccdf8d1c_-74f5,3351,Contenedor ropa Cl Federico Fellini 85,,"CALLE FEDERICO FELLINI, 85 ",POINT (-4.385807470756846 36.727148585957565),,,,,,MUNICIPAL,No,No,,-4.385807470756846,36.727148585957565
da_medioAmbiente_contenedoresRopa.fid-7e811540_18cccdf8d1c_-74f4,3262,Contenedor ropa Av Doctor Marañón,,"AVENIDA DEL DOCTOR MARAÑÓN, 23 ",POINT (-4.428566316034204 36.73013199298652),,,,,,MUNICIPAL,No,No,,-4.428566316034204,36.73013199298652
da_medioAmbiente_contenedoresRopa.fid-7e811540_18cccdf8d1c_-74f3,3326,Contenedor ropa Cl Cervantes,,"CALLE CERVANTES, 14 ",POINT (-4.410106577212458 36.71886885373542),,,,,,MUNICIPAL,No,No,,-4.410106577212458,36.71886885373542
da_medioAmbiente_contenedoresRopa.fid-7e811540_18cccdf8d1c_-74f2,3458,Contenedor ropa Pl Bailén,,"PLAZA BAILÉN, 11 ",POINT (-4.431460561229152 36.72427866184933),,,,,,MUNICIPAL,No,No,,-4.431460561229152,36.72427866184933
da_medioAmbiente_contenedoresRopa.fid-7e811540_18cccdf8d1c_-74f1,3426,Contenedor ropa Cl San Juan Bosco,,"CALLE SAN JUAN BOSCO, 49 ",POINT (-4.4223741160652725 36.734106964001995),,,,,,MUNICIPAL,No,No,,-4.4223741160652725,36.734106964001995
da_medioAmbiente_contenedoresRopa.fid-7e811540_18cccdf8d1c_-74f0,3345,Contenedor ropa Cl Escritor Julio Balbas,,"CALLE DEL ESCRITOR JULIO BALBAS, 24 ",POINT (-4.4988184217685205 36.66234802673632),,,,,,MUNICIPAL,No,No,,-4.4988184217685205,36.66234802673632
da_medioAmbiente_contenedoresRopa.fid-7e811540_18cccdf8d1c_-74ef,3372,Contenedor ropa Cl Hilera 14,,"CALLE HILERA, 14 ",POINT (-4.432839489243319 36.71967488675372),,,,,,MUNICIPAL,No,No,,-4.432839489243319,36.71967488675372
da_medioAmbiente_contenedoresRopa.fid-7e811540_18cccdf8d1c_-74ee,3460,Contenedor ropa Pl Francisco López López,,"PLAZA FRANCISCO LÓPEZ LÓPEZ, 5 ",POINT (-4.421076724251237 36.74085162287872),,,,,,MUNICIPAL,No,No,,-4.421076724251237,36.74085162287872
da_medioAmbiente_contenedoresRopa.fid-7e811540_18cccdf8d1c_-74ed,3462,Contenedor ropa Pl Inmaculada,,"PLAZA DE LA INMACULADA, 14 ",POINT (-4.503157970123636 36.66936818293721),,,,,,MUNICIPAL,No,No,,-4.503157970123636,36.66936818293721
da_medioAmbiente_contenedoresRopa.fid-7e811540_18cccdf8d1c_-74ec,3339,Contenedor ropa Cl Don Juan De Austria,,"CALLE DON JUAN DE AUSTRIA, 43 ",POINT (-4.4287773478263786 36.72668034735309),,,,,,MUNICIPAL,No,No,,-4.4287773478263786,36.72668034735309
da_medioAmbiente_contenedoresRopa.fid-7e811540_18cccdf8d1c_-74eb,3469,Contenedor ropa Pl Mozart,,"PLAZA DE MOZART, 1 ",POINT (-4.44966831508765 36.69431744985974),,,,,,MUNICIPAL,No,No,,-4.44966831508765,36.69431744985974
da_medioAmbiente_contenedoresRopa.fid-7e811540_18cccdf8d1c_-74ea,3447,Contenedor ropa Cmno San Rafael 23,,"CAMINO DE SAN RAFAEL, 23 ",POINT (-4.443954648140841 36.70989943791953),,,,,,MUNICIPAL,No,No,,-4.443954648140841,36.70989943791953
da_medioAmbiente_contenedoresRopa.fid-7e811540_18cccdf8d1c_-74e9,3436,Contenedor ropa Cl Vicente Aleixandre,,"CALLE VICENTE ALEIXANDRE, 50 ",POINT (-4.441025756096926 36.698591771910486),,,,,,MUNICIPAL,No,No,,-4.441025756096926,36.698591771910486
da_medioAmbiente_contenedoresRopa.fid-7e811540_18cccdf8d1c_-74e8,3344,Contenedor ropa Cl Eolo,,"CALLE DE EOLO, 1 ",POINT (-4.4760378590765555 36.719139743901444),,,,,,MUNICIPAL,No,No,,-4.4760378590765555,36.719139743901444
da_medioAmbiente_contenedoresRopa.fid-7e811540_18cccdf8d1c_-74e7,3366,Contenedor ropa Cl Hamlet,,"CALLE HAMLET, 24 ",POINT (-4.463787776733931 36.71031638514652),,,,,,MUNICIPAL,No,No,,-4.463787776733931,36.71031638514652
da_medioAmbiente_contenedoresRopa.fid-7e811540_18cccdf8d1c_-74e6,3360,Contenedor ropa Cl Godino  4,,"CALLE GODINO, 4 ",POINT (-4.429274318888475 36.7309724646758),,,,,,MUNICIPAL,No,No,,-4.429274318888475,36.7309724646758
da_medioAmbiente_contenedoresRopa.fid-7e811540_18cccdf8d1c_-74e5,3400,Contenedor ropa Cl Martinez De La Rosa,,"CALLE MARTÍNEZ DE LA ROSA, 167 ",POINT (-4.442467832180314 36.727656343666034),,,,,,MUNICIPAL,No,No,,-4.442467832180314,36.727656343666034
da_medioAmbiente_contenedoresRopa.fid-7e811540_18cccdf8d1c_-74e4,3361,Contenedor ropa Cl Godino 20,,"CALLE GODINO, 30 ",POINT (-4.429829258260627 36.73304164283656),,,,,,MUNICIPAL,No,No,,-4.429829258260627,36.73304164283656
da_medioAmbiente_contenedoresRopa.fid-7e811540_18cccdf8d1c_-74e3,3401,Contenedor ropa Cl Martínez Maldonado,,"CALLE MARTÍNEZ MALDONADO, 45 ",POINT (-4.435379770566256 36.721361374898294),,,,,,MUNICIPAL,No,No,,-4.435379770566256,36.721361374898294
da_medioAmbiente_contenedoresRopa.fid-7e811540_18cccdf8d1c_-74e2,3338,Contenedor ropa Cl Doctor Ramos Acosta,,"CALLE DOCTOR RAMOS ACOSTA, 20 ",POINT (-4.50248661600774 36.66336090617416),,,,,,MUNICIPAL,No,No,,-4.50248661600774,36.66336090617416
da_medioAmbiente_contenedoresRopa.fid-7e811540_18cccdf8d1c_-74e1,3402,Contenedor ropa Cl Matisse,,"CALLE DE MATISSE, 1 ",POINT (-4.53832835787508 36.72308697960095),,,,,,MUNICIPAL,No,No,,-4.53832835787508,36.72308697960095
da_medioAmbiente_contenedoresRopa.fid-7e811540_18cccdf8d1c_-74e0,3449,Contenedor ropa Cmno Santa Inés,,"CAMINO SANTA INÉS, 12 ",POINT (-4.533851869175921 36.7208733798978),,,,,,MUNICIPAL,No,No,,-4.533851869175921,36.7208733798978
da_medioAmbiente_contenedoresRopa.fid-7e811540_18cccdf8d1c_-74df,3288,Contenedor ropa Av Obispo Ángel Herrera Oria,,"AVENIDA DEL OBISPO ÁNGEL HERRERA ORIA, 2 ",POINT (-4.437977618391543 36.71830078653625),,,,,,MUNICIPAL,No,No,,-4.437977618391543,36.71830078653625
da_medioAmbiente_contenedoresRopa.fid-7e811540_18cccdf8d1c_-74de,3309,Contenedor ropa Cl Albacete,,"CALLE ALBACETE, 2 ",POINT (-4.443789807394051 36.72891438903034),,,,,,MUNICIPAL,No,No,,-4.443789807394051,36.72891438903034
da_medioAmbiente_contenedoresRopa.fid-7e811540_18cccdf8d1c_-74dd,3305,Contenedor ropa Av Sor Teresa Prat,,"AVENIDA DE SOR TERESA PRAT, 63 ",POINT (-4.443077071587952 36.6949231509708),,,,,,MUNICIPAL,No,No,,-4.443077071587952,36.6949231509708
da_medioAmbiente_contenedoresRopa.fid-7e811540_18cccdf8d1c_-74dc,3450,Contenedor ropa Cmno Suárez 10,,"CAMINO DE SUÁREZ, 10 ",POINT (-4.4368840825518685 36.72733525611937),,,,,,MUNICIPAL,No,No,,-4.4368840825518685,36.72733525611937
da_medioAmbiente_contenedoresRopa.fid-7e811540_18cccdf8d1c_-74db,3448,Contenedor ropa Cmno San Rafael 52,,"CAMINO DE SAN RAFAEL, 52 ",POINT (-4.447538554400029 36.70818091598274),,,,,,MUNICIPAL,No,No,,-4.447538554400029,36.70818091598274
da_medioAmbiente_contenedoresRopa.fid-7e811540_18cccdf8d1c_-74da,3435,Contenedor ropa Cl Travesía De Maqueda,,"CALLE TRAVESÍA DE MAQUEDA, 60 ",POINT (-4.56871281358272 36.73286243530546),,,,,,MUNICIPAL,No,No,,-4.56871281358272,36.73286243530546
da_medioAmbiente_contenedoresRopa.fid-7e811540_18cccdf8d1c_-74d9,3404,Contenedor ropa Cl Merlo,,"CALLE MERLO, 5 ",POINT (-4.438616274790902 36.713539597267896),,,,,,MUNICIPAL,No,No,,-4.438616274790902,36.713539597267896
da_medioAmbiente_contenedoresRopa.fid-7e811540_18cccdf8d1c_-74d8,3250,Contenedor ropa Av Atabal,,"AVENIDA DEL ATABAL, 3 ",POINT (-4.470158806950185 36.731135421921735),,,,,,MUNICIPAL,No,No,,-4.470158806950185,36.731135421921735
da_medioAmbiente_contenedoresRopa.fid-7e811540_18cccdf8d1c_-74d7,3379,Contenedor ropa Cl Jacob,,"CALLE JACOB, 32 ",POINT (-4.549352096090202 36.72760631486235),,,,,,MUNICIPAL,No,No,,-4.549352096090202,36.72760631486235
da_medioAmbiente_contenedoresRopa.fid-7e811540_18cccdf8d1c_-74d6,3359,Contenedor ropa Cl Gaucín,,"CALLE GAUCÍN, 24 ",POINT (-4.450285653710948 36.69896390134533),,,,,,MUNICIPAL,No,No,,-4.450285653710948,36.69896390134533
da_medioAmbiente_contenedoresRopa.fid-7e811540_18cccdf8d1c_-74d5,3252,Contenedor ropa Av Aurora 61,,"AVENIDA DE LA AURORA, 61 ",POINT (-4.439123957017012 36.71529448879642),,,,,,MUNICIPAL,No,No,,-4.439123957017012,36.71529448879642
da_medioAmbiente_contenedoresRopa.fid-7e811540_18cccdf8d1c_-74d4,3451,Contenedor ropa Cmno Suárez 22,,"CAMINO DE SUÁREZ, 22 ",POINT (-4.438300082059761 36.72751623358488),,,,,,MUNICIPAL,No,No,,-4.438300082059761,36.72751623358488
da_medioAmbiente_contenedoresRopa.fid-7e811540_18cccdf8d1c_-74d3,3280,Contenedor ropa Av Luz De La,,"AVENIDA DE LA LUZ, 14 ",POINT (-4.452468296408248 36.6966126567298),,,,,,MUNICIPAL,No,No,,-4.452468296408248,36.6966126567298
da_medioAmbiente_contenedoresRopa.fid-7e811540_18cccdf8d1c_-74d2,3286,Contenedor ropa Av Nehemías,,"AVENIDA DE NEHEMÍAS, 2 ",POINT (-4.454966178094478 36.704910175570696),,,,,,MUNICIPAL,No,No,,-4.454966178094478,36.704910175570696
da_medioAmbiente_contenedoresRopa.fid-7e811540_18cccdf8d1c_-74d1,3251,Contenedor ropa Av Aurora 5,,"AVENIDA DE LA AURORA, 5 ",POINT (-4.428149105850776 36.71574413495932),,,,,,MUNICIPAL,No,No,,-4.428149105850776,36.71574413495932
da_medioAmbiente_contenedoresRopa.fid-7e811540_18cccdf8d1c_-74d0,3269,Contenedor ropa Av Gregorio Diego,,"AVENIDA DE GREGORIO DIEGO, 46 ",POINT (-4.449011198985772 36.68827314293027),,,,,,MUNICIPAL,No,No,,-4.449011198985772,36.68827314293027
da_medioAmbiente_contenedoresRopa.fid-7e811540_18cccdf8d1c_-74cf,3307,Contenedor ropa Av Virgen De Belén,,"AVENIDA DE LA VIRGEN DE BELÉN, 5 ",POINT (-4.455225497194047 36.693759393742134),,,,,,MUNICIPAL,No,No,,-4.455225497194047,36.693759393742134
da_medioAmbiente_contenedoresRopa.fid-7e811540_18cccdf8d1c_-74ce,3420,Contenedor ropa Cl Píndaro,,"CALLE PÍNDARO, 10 ",POINT (-4.481906277498846 36.71994932118517),,,,,,MUNICIPAL,No,No,,-4.481906277498846,36.71994932118517
da_medioAmbiente_contenedoresRopa.fid-7e811540_18cccdf8d1c_-74cd,3467,Contenedor ropa Pl Manos Unidas,,"PLAZA MANOS UNIDAS, 1 ",POINT (-4.463757785744547 36.72686849912677),,,,,,MUNICIPAL,No,No,,-4.463757785744547,36.72686849912677
da_medioAmbiente_contenedoresRopa.fid-7e811540_18cccdf8d1c_-74cc,3289,Contenedor ropa Av Palmilla 15,,"AVENIDA DE LA PALMILLA, 16 ",POINT (-4.426722458045069 36.73792704650344),,,,,,MUNICIPAL,No,No,,-4.426722458045069,36.73792704650344
da_medioAmbiente_contenedoresRopa.fid-7e811540_18cccdf8d1c_-74cb,3290,Contenedor ropa Av Palmilla 8,,"AVENIDA DE LA PALMILLA, 9 ",POINT (-4.42747301357202 36.73565954879587),,,,,,MUNICIPAL,No,No,,-4.42747301357202,36.73565954879587
da_medioAmbiente_contenedoresRopa.fid-7e811540_18cccdf8d1c_-74ca,3243,Contenedor ropa Almd Capuchinos,,"ALAMEDA DE CAPUCHINOS, 12 ",POINT (-4.420189054959279 36.72974102216025),,,,,,MUNICIPAL,No,No,,-4.420189054959279,36.72974102216025
da_medioAmbiente_contenedoresRopa.fid-7e811540_18cccdf8d1c_-74c9,3471,Contenedor ropa Pl Pintor Sandro Botticelli,,"PLAZA DEL PINTOR SANDRO BOTTICELLI, 5 ",POINT (-4.460532750197781 36.72014252002397),,,,,,MUNICIPAL,No,No,,-4.460532750197781,36.72014252002397
da_medioAmbiente_contenedoresRopa.fid-7e811540_18cccdf8d1c_-74c8,3327,Contenedor ropa Cl Charles Dickens,,"CALLE DE CHARLES DICKENS, 16 ",POINT (-4.464467046413326 36.7235695638619),,,,,,MUNICIPAL,No,No,,-4.464467046413326,36.7235695638619
da_medioAmbiente_contenedoresRopa.fid-7e811540_18cccdf8d1c_-74c7,3308,Contenedor ropa Cl Abogado Federico Orellana Toledano,,"CALLE ABOGADO FEDERICO ORELLANA TOLEDANO, 20 ",POINT (-4.4403251578538745 36.70353919535581),,,,,,MUNICIPAL,No,No,,-4.4403251578538745,36.70353919535581
da_medioAmbiente_contenedoresRopa.fid-7e811540_18cccdf8d1c_-74c6,3438,Contenedor ropa Cl Viña Del Mar,,"CALLE VIÑA DEL MAR, 1 ",POINT (-4.453576450464553 36.69181075468169),,,,,,MUNICIPAL,No,No,,-4.453576450464553,36.69181075468169
